{"day":"2020-03-18","additionalInfo":{"countries":160},"areas":[{"placeId":21,"placeName":"China","numOfInfected":81116,"travelHistoryChina":null,"outsideReporting":null,"transmissionOutsideOfChina":null,"underInvestigation":null,"deaths":3231},{"placeId":6,"placeName":"Republic of Korea","numOfInfected":8320,"travelHistoryChina":null,"outsideReporting":null,"transmissionOutsideOfChina":null,"underInvestigation":null,"deaths":81},{"placeId":5,"placeName":"Japan","numOfInfected":829,"travelHistoryChina":null,"outsideReporting":null,"transmissionOutsideOfChina":null,"underInvestigation":null,"deaths":28},{"placeId":27,"placeName":"Malaysia","numOfInfected":553,"travelHistoryChina":null,"outsideReporting":null,"transmissionOutsideOfChina":null,"underInvestigation":null,"deaths":0},{"placeId":24,"placeName":"Australia","numOfInfected":414,"travelHistoryChina":null,"outsideReporting":null,"transmissionOutsideOfChina":null,"underInvestigation":null,"deaths":5},{"placeId":23,"placeName":"Singapore","numOfInfected":266,"travelHistoryChina":null,"outsideReporting":null,"transmissionOutsideOfChina":null,"underInvestigation":null,"deaths":0},{"placeId":34,"placeName":"Philippines","numOfInfected":187,"travelHistoryChina":null,"outsideReporting":null,"transmissionOutsideOfChina":null,"underInvestigation":null,"deaths":12},{"placeId":22,"placeName":"Viet Nam","numOfInfected":61,"travelHistoryChina":null,"outsideReporting":null,"transmissionOutsideOfChina":null,"underInvestigation":null,"deaths":0},{"placeId":144,"placeName":"Brunei Darussalam","numOfInfected":54,"travelHistoryChina":null,"outsideReporting":null,"transmissionOutsideOfChina":null,"underInvestigation":null,"deaths":0},{"placeId":32,"placeName":"Cambodia","numOfInfected":24,"travelHistoryChina":null,"outsideReporting":null,"transmissionOutsideOfChina":null,"underInvestigation":null,"deaths":0},{"placeId":84,"placeName":"New Zealand","numOfInfected":11,"travelHistoryChina":null,"outsideReporting":null,"transmissionOutsideOfChina":null,"underInvestigation":null,"deaths":0},{"placeId":145,"placeName":"Mongolia","numOfInfected":4,"travelHistoryChina":null,"outsideReporting":null,"transmissionOutsideOfChina":null,"underInvestigation":null,"deaths":0},{"placeId":153,"placeName":"French Polynesia","numOfInfected":3,"travelHistoryChina":null,"outsideReporting":null,"transmissionOutsideOfChina":null,"underInvestigation":null,"deaths":0},{"placeId":190,"placeName":"Guam","numOfInfected":3,"travelHistoryChina":null,"outsideReporting":null,"transmissionOutsideOfChina":null,"underInvestigation":null,"deaths":0},{"placeId":37,"placeName":"Italy","numOfInfected":31506,"travelHistoryChina":null,"outsideReporting":null,"transmissionOutsideOfChina":null,"underInvestigation":null,"deaths":2503},{"placeId":39,"placeName":"Spain","numOfInfected":11178,"travelHistoryChina":null,"outsideReporting":null,"transmissionOutsideOfChina":null,"underInvestigation":null,"deaths":491},{"placeId":26,"placeName":"France","numOfInfected":7652,"travelHistoryChina":null,"outsideReporting":null,"transmissionOutsideOfChina":null,"underInvestigation":null,"deaths":175},{"placeId":31,"placeName":"Germany","numOfInfected":7156,"travelHistoryChina":null,"outsideReporting":null,"transmissionOutsideOfChina":null,"underInvestigation":null,"deaths":13},{"placeId":73,"placeName":"Switzerland","numOfInfected":2650,"travelHistoryChina":null,"outsideReporting":null,"transmissionOutsideOfChina":null,"underInvestigation":null,"deaths":14},{"placeId":41,"placeName":"The United Kingdom","numOfInfected":1954,"travelHistoryChina":null,"outsideReporting":null,"transmissionOutsideOfChina":null,"underInvestigation":null,"deaths":55},{"placeId":87,"placeName":"Netherlands","numOfInfected":1705,"travelHistoryChina":null,"outsideReporting":null,"transmissionOutsideOfChina":null,"underInvestigation":null,"deaths":43},{"placeId":42,"placeName":"Belgium","numOfInfected":1486,"travelHistoryChina":null,"outsideReporting":null,"transmissionOutsideOfChina":null,"underInvestigation":null,"deaths":14},{"placeId":71,"placeName":"Austria","numOfInfected":1332,"travelHistoryChina":null,"outsideReporting":null,"transmissionOutsideOfChina":null,"underInvestigation":null,"deaths":3},{"placeId":81,"placeName":"Norway","numOfInfected":1308,"travelHistoryChina":null,"outsideReporting":null,"transmissionOutsideOfChina":null,"underInvestigation":null,"deaths":3},{"placeId":40,"placeName":"Sweden","numOfInfected":1167,"travelHistoryChina":null,"outsideReporting":null,"transmissionOutsideOfChina":null,"underInvestigation":null,"deaths":3},{"placeId":76,"placeName":"Denmark","numOfInfected":977,"travelHistoryChina":null,"outsideReporting":null,"transmissionOutsideOfChina":null,"underInvestigation":null,"deaths":4},{"placeId":103,"placeName":"Portugal","numOfInfected":448,"travelHistoryChina":null,"outsideReporting":null,"transmissionOutsideOfChina":null,"underInvestigation":null,"deaths":1},{"placeId":96,"placeName":"Czechia","numOfInfected":434,"travelHistoryChina":null,"outsideReporting":null,"transmissionOutsideOfChina":null,"underInvestigation":null,"deaths":0},{"placeId":79,"placeName":"Greece","numOfInfected":387,"travelHistoryChina":null,"outsideReporting":null,"transmissionOutsideOfChina":null,"underInvestigation":null,"deaths":4},{"placeId":36,"placeName":"Finland","numOfInfected":319,"travelHistoryChina":null,"outsideReporting":null,"transmissionOutsideOfChina":null,"underInvestigation":null,"deaths":0},{"placeId":64,"placeName":"Israel","numOfInfected":304,"travelHistoryChina":null,"outsideReporting":null,"transmissionOutsideOfChina":null,"underInvestigation":null,"deaths":0},{"placeId":92,"placeName":"Ireland","numOfInfected":292,"travelHistoryChina":null,"outsideReporting":null,"transmissionOutsideOfChina":null,"underInvestigation":null,"deaths":2},{"placeId":117,"placeName":"Slovenia","numOfInfected":275,"travelHistoryChina":null,"outsideReporting":null,"transmissionOutsideOfChina":null,"underInvestigation":null,"deaths":1},{"placeId":111,"placeName":"Poland","numOfInfected":246,"travelHistoryChina":null,"outsideReporting":null,"transmissionOutsideOfChina":null,"underInvestigation":null,"deaths":5},{"placeId":77,"placeName":"Estonia","numOfInfected":225,"travelHistoryChina":null,"outsideReporting":null,"transmissionOutsideOfChina":null,"underInvestigation":null,"deaths":0},{"placeId":97,"placeName":"Iceland","numOfInfected":225,"travelHistoryChina":null,"outsideReporting":null,"transmissionOutsideOfChina":null,"underInvestigation":null,"deaths":0},{"placeId":82,"placeName":"Romania","numOfInfected":184,"travelHistoryChina":null,"outsideReporting":null,"transmissionOutsideOfChina":null,"underInvestigation":null,"deaths":0},{"placeId":98,"placeName":"Luxembourg","numOfInfected":140,"travelHistoryChina":null,"outsideReporting":null,"transmissionOutsideOfChina":null,"underInvestigation":null,"deaths":1},{"placeId":89,"placeName":"San Marino","numOfInfected":104,"travelHistoryChina":null,"outsideReporting":null,"transmissionOutsideOfChina":null,"underInvestigation":null,"deaths":11},{"placeId":129,"placeName":"Slovakia","numOfInfected":97,"travelHistoryChina":null,"outsideReporting":null,"transmissionOutsideOfChina":null,"underInvestigation":null,"deaths":0},{"placeId":38,"placeName":"Russian Federation","numOfInfected":93,"travelHistoryChina":null,"outsideReporting":null,"transmissionOutsideOfChina":null,"underInvestigation":null,"deaths":0},{"placeId":134,"placeName":"Bulgaria","numOfInfected":81,"travelHistoryChina":null,"outsideReporting":null,"transmissionOutsideOfChina":null,"underInvestigation":null,"deaths":2},{"placeId":123,"placeName":"Serbia","numOfInfected":85,"travelHistoryChina":null,"outsideReporting":null,"transmissionOutsideOfChina":null,"underInvestigation":null,"deaths":0},{"placeId":72,"placeName":"Croatia","numOfInfected":65,"travelHistoryChina":null,"outsideReporting":null,"transmissionOutsideOfChina":null,"underInvestigation":null,"deaths":0},{"placeId":105,"placeName":"Latvia","numOfInfected":60,"travelHistoryChina":null,"outsideReporting":null,"transmissionOutsideOfChina":null,"underInvestigation":null,"deaths":0},{"placeId":141,"placeName":"Albania","numOfInfected":55,"travelHistoryChina":null,"outsideReporting":null,"transmissionOutsideOfChina":null,"underInvestigation":null,"deaths":1},{"placeId":99,"placeName":"Armenia","numOfInfected":52,"travelHistoryChina":null,"outsideReporting":null,"transmissionOutsideOfChina":null,"underInvestigation":null,"deaths":0},{"placeId":116,"placeName":"Hungary","numOfInfected":50,"travelHistoryChina":null,"outsideReporting":null,"transmissionOutsideOfChina":null,"underInvestigation":null,"deaths":1},{"placeId":154,"placeName":"Turkey","numOfInfected":47,"travelHistoryChina":null,"outsideReporting":null,"transmissionOutsideOfChina":null,"underInvestigation":null,"deaths":0},{"placeId":133,"placeName":"Malta","numOfInfected":38,"travelHistoryChina":null,"outsideReporting":null,"transmissionOutsideOfChina":null,"underInvestigation":null,"deaths":0},{"placeId":85,"placeName":"Belarus","numOfInfected":36,"travelHistoryChina":null,"outsideReporting":null,"transmissionOutsideOfChina":null,"underInvestigation":null,"deaths":0},{"placeId":78,"placeName":"Georgia","numOfInfected":34,"travelHistoryChina":null,"outsideReporting":null,"transmissionOutsideOfChina":null,"underInvestigation":null,"deaths":0},{"placeId":146,"placeName":"Cyprus","numOfInfected":33,"travelHistoryChina":null,"outsideReporting":null,"transmissionOutsideOfChina":null,"underInvestigation":null,"deaths":0},{"placeId":174,"placeName":"Kazakhstan","numOfInfected":33,"travelHistoryChina":null,"outsideReporting":null,"transmissionOutsideOfChina":null,"underInvestigation":null,"deaths":0},{"placeId":80,"placeName":"North Macedonia","numOfInfected":31,"travelHistoryChina":null,"outsideReporting":null,"transmissionOutsideOfChina":null,"underInvestigation":null,"deaths":0},{"placeId":135,"placeName":"Republic of Moldova","numOfInfected":30,"travelHistoryChina":null,"outsideReporting":null,"transmissionOutsideOfChina":null,"underInvestigation":null,"deaths":0},{"placeId":86,"placeName":"Lithuania","numOfInfected":25,"travelHistoryChina":null,"outsideReporting":null,"transmissionOutsideOfChina":null,"underInvestigation":null,"deaths":0},{"placeId":90,"placeName":"Azerbaijan","numOfInfected":21,"travelHistoryChina":null,"outsideReporting":null,"transmissionOutsideOfChina":null,"underInvestigation":null,"deaths":0},{"placeId":115,"placeName":"Bosnia and Herzegovina","numOfInfected":19,"travelHistoryChina":null,"outsideReporting":null,"transmissionOutsideOfChina":null,"underInvestigation":null,"deaths":0},{"placeId":104,"placeName":"Andorra","numOfInfected":16,"travelHistoryChina":null,"outsideReporting":null,"transmissionOutsideOfChina":null,"underInvestigation":null,"deaths":0},{"placeId":183,"placeName":"Uzbekistan","numOfInfected":16,"travelHistoryChina":null,"outsideReporting":null,"transmissionOutsideOfChina":null,"underInvestigation":null,"deaths":0},{"placeId":112,"placeName":"Ukraine","numOfInfected":14,"travelHistoryChina":null,"outsideReporting":null,"transmissionOutsideOfChina":null,"underInvestigation":null,"deaths":2},{"placeId":93,"placeName":"Monaco","numOfInfected":9,"travelHistoryChina":null,"outsideReporting":null,"transmissionOutsideOfChina":null,"underInvestigation":null,"deaths":0},{"placeId":118,"placeName":"Liechtenstein","numOfInfected":7,"travelHistoryChina":null,"outsideReporting":null,"transmissionOutsideOfChina":null,"underInvestigation":null,"deaths":0},{"placeId":200,"placeName":"Montenegro","numOfInfected":2,"travelHistoryChina":null,"outsideReporting":null,"transmissionOutsideOfChina":null,"underInvestigation":null,"deaths":0},{"placeId":127,"placeName":"Holy See","numOfInfected":1,"travelHistoryChina":null,"outsideReporting":null,"transmissionOutsideOfChina":null,"underInvestigation":null,"deaths":0},{"placeId":136,"placeName":"Faroe Islands","numOfInfected":47,"travelHistoryChina":null,"outsideReporting":null,"transmissionOutsideOfChina":null,"underInvestigation":null,"deaths":0},{"placeId":157,"placeName":"Jersey","numOfInfected":5,"travelHistoryChina":null,"outsideReporting":null,"transmissionOutsideOfChina":null,"underInvestigation":null,"deaths":0},{"placeId":119,"placeName":"Gibraltar","numOfInfected":3,"travelHistoryChina":null,"outsideReporting":null,"transmissionOutsideOfChina":null,"underInvestigation":null,"deaths":0},{"placeId":147,"placeName":"Guernsey","numOfInfected":1,"travelHistoryChina":null,"outsideReporting":null,"transmissionOutsideOfChina":null,"underInvestigation":null,"deaths":0},{"placeId":7,"placeName":"Thailand","numOfInfected":177,"travelHistoryChina":null,"outsideReporting":null,"transmissionOutsideOfChina":null,"underInvestigation":null,"deaths":1},{"placeId":100,"placeName":"Indonesia","numOfInfected":172,"travelHistoryChina":null,"outsideReporting":null,"transmissionOutsideOfChina":null,"underInvestigation":null,"deaths":5},{"placeId":35,"placeName":"India","numOfInfected":137,"travelHistoryChina":null,"outsideReporting":null,"transmissionOutsideOfChina":null,"underInvestigation":null,"deaths":3},{"placeId":30,"placeName":"Sri Lanka","numOfInfected":29,"travelHistoryChina":null,"outsideReporting":null,"transmissionOutsideOfChina":null,"underInvestigation":null,"deaths":0},{"placeId":137,"placeName":"Maldives","numOfInfected":13,"travelHistoryChina":null,"outsideReporting":null,"transmissionOutsideOfChina":null,"underInvestigation":null,"deaths":0},{"placeId":142,"placeName":"Bangladesh","numOfInfected":8,"travelHistoryChina":null,"outsideReporting":null,"transmissionOutsideOfChina":null,"underInvestigation":null,"deaths":0},{"placeId":124,"placeName":"Bhutan","numOfInfected":1,"travelHistoryChina":null,"outsideReporting":null,"transmissionOutsideOfChina":null,"underInvestigation":null,"deaths":0},{"placeId":25,"placeName":"Nepal","numOfInfected":1,"travelHistoryChina":null,"outsideReporting":null,"transmissionOutsideOfChina":null,"underInvestigation":null,"deaths":0},{"placeId":63,"placeName":"Iran","numOfInfected":16169,"travelHistoryChina":null,"outsideReporting":null,"transmissionOutsideOfChina":null,"underInvestigation":null,"deaths":988},{"placeId":94,"placeName":"Qatar","numOfInfected":442,"travelHistoryChina":null,"outsideReporting":null,"transmissionOutsideOfChina":null,"underInvestigation":null,"deaths":0},{"placeId":69,"placeName":"Bahrain","numOfInfected":237,"travelHistoryChina":null,"outsideReporting":null,"transmissionOutsideOfChina":null,"underInvestigation":null,"deaths":1},{"placeId":83,"placeName":"Pakistan","numOfInfected":187,"travelHistoryChina":null,"outsideReporting":null,"transmissionOutsideOfChina":null,"underInvestigation":null,"deaths":0},{"placeId":108,"placeName":"Saudi Arabia","numOfInfected":171,"travelHistoryChina":null,"outsideReporting":null,"transmissionOutsideOfChina":null,"underInvestigation":null,"deaths":0},{"placeId":62,"placeName":"Egypt","numOfInfected":166,"travelHistoryChina":null,"outsideReporting":null,"transmissionOutsideOfChina":null,"underInvestigation":null,"deaths":4},{"placeId":67,"placeName":"Iraq","numOfInfected":154,"travelHistoryChina":null,"outsideReporting":null,"transmissionOutsideOfChina":null,"underInvestigation":null,"deaths":11},{"placeId":66,"placeName":"Kuwait","numOfInfected":130,"travelHistoryChina":null,"outsideReporting":null,"transmissionOutsideOfChina":null,"underInvestigation":null,"deaths":0},{"placeId":65,"placeName":"Lebanon","numOfInfected":120,"travelHistoryChina":null,"outsideReporting":null,"transmissionOutsideOfChina":null,"underInvestigation":null,"deaths":3},{"placeId":33,"placeName":"United Arab Emirates","numOfInfected":98,"travelHistoryChina":null,"outsideReporting":null,"transmissionOutsideOfChina":null,"underInvestigation":null,"deaths":0},{"placeId":107,"placeName":"Morocco","numOfInfected":38,"travelHistoryChina":null,"outsideReporting":null,"transmissionOutsideOfChina":null,"underInvestigation":null,"deaths":2},{"placeId":106,"placeName":"Jordan","numOfInfected":35,"travelHistoryChina":null,"outsideReporting":null,"transmissionOutsideOfChina":null,"underInvestigation":null,"deaths":0},{"placeId":70,"placeName":"Oman","numOfInfected":24,"travelHistoryChina":null,"outsideReporting":null,"transmissionOutsideOfChina":null,"underInvestigation":null,"deaths":0},{"placeId":109,"placeName":"Tunisia","numOfInfected":24,"travelHistoryChina":null,"outsideReporting":null,"transmissionOutsideOfChina":null,"underInvestigation":null,"deaths":0},{"placeId":68,"placeName":"Afghanistan","numOfInfected":22,"travelHistoryChina":null,"outsideReporting":null,"transmissionOutsideOfChina":null,"underInvestigation":null,"deaths":0},{"placeId":193,"placeName":"Somalia","numOfInfected":1,"travelHistoryChina":null,"outsideReporting":null,"transmissionOutsideOfChina":null,"underInvestigation":null,"deaths":0},{"placeId":162,"placeName":"Sudan","numOfInfected":1,"travelHistoryChina":null,"outsideReporting":null,"transmissionOutsideOfChina":null,"underInvestigation":null,"deaths":1},{"placeId":120,"placeName":"occupied Palestinian territory","numOfInfected":41,"travelHistoryChina":null,"outsideReporting":null,"transmissionOutsideOfChina":null,"underInvestigation":null,"deaths":0},{"placeId":20,"placeName":"United States of America","numOfInfected":3536,"travelHistoryChina":null,"outsideReporting":null,"transmissionOutsideOfChina":null,"underInvestigation":null,"deaths":58},{"placeId":28,"placeName":"Canada","numOfInfected":424,"travelHistoryChina":null,"outsideReporting":null,"transmissionOutsideOfChina":null,"underInvestigation":null,"deaths":1},{"placeId":75,"placeName":"Brazil","numOfInfected":234,"travelHistoryChina":null,"outsideReporting":null,"transmissionOutsideOfChina":null,"underInvestigation":null,"deaths":0},{"placeId":114,"placeName":"Chile","numOfInfected":156,"travelHistoryChina":null,"outsideReporting":null,"transmissionOutsideOfChina":null,"underInvestigation":null,"deaths":0},{"placeId":131,"placeName":"Peru","numOfInfected":86,"travelHistoryChina":null,"outsideReporting":null,"transmissionOutsideOfChina":null,"underInvestigation":null,"deaths":0},{"placeId":102,"placeName":"Mexico","numOfInfected":82,"travelHistoryChina":null,"outsideReporting":null,"transmissionOutsideOfChina":null,"underInvestigation":null,"deaths":0},{"placeId":148,"placeName":"Panama","numOfInfected":69,"travelHistoryChina":null,"outsideReporting":null,"transmissionOutsideOfChina":null,"underInvestigation":null,"deaths":1},{"placeId":113,"placeName":"Argentina","numOfInfected":65,"travelHistoryChina":null,"outsideReporting":null,"transmissionOutsideOfChina":null,"underInvestigation":null,"deaths":2},{"placeId":95,"placeName":"Ecuador","numOfInfected":58,"travelHistoryChina":null,"outsideReporting":null,"transmissionOutsideOfChina":null,"underInvestigation":null,"deaths":2},{"placeId":130,"placeName":"Colombia","numOfInfected":45,"travelHistoryChina":null,"outsideReporting":null,"transmissionOutsideOfChina":null,"underInvestigation":null,"deaths":0},{"placeId":138,"placeName":"Costa Rica","numOfInfected":41,"travelHistoryChina":null,"outsideReporting":null,"transmissionOutsideOfChina":null,"underInvestigation":null,"deaths":0},{"placeId":164,"placeName":"Venezuela Republic of)","numOfInfected":33,"travelHistoryChina":null,"outsideReporting":null,"transmissionOutsideOfChina":null,"underInvestigation":null,"deaths":0},{"placeId":101,"placeName":"Dominican Republic","numOfInfected":21,"travelHistoryChina":null,"outsideReporting":null,"transmissionOutsideOfChina":null,"underInvestigation":null,"deaths":1},{"placeId":150,"placeName":"Jamaica","numOfInfected":12,"travelHistoryChina":null,"outsideReporting":null,"transmissionOutsideOfChina":null,"underInvestigation":null,"deaths":0},{"placeId":149,"placeName":"Bolivia State of)","numOfInfected":11,"travelHistoryChina":null,"outsideReporting":null,"transmissionOutsideOfChina":null,"underInvestigation":null,"deaths":0},{"placeId":143,"placeName":"Paraguay","numOfInfected":9,"travelHistoryChina":null,"outsideReporting":null,"transmissionOutsideOfChina":null,"underInvestigation":null,"deaths":0},{"placeId":155,"placeName":"Honduras","numOfInfected":8,"travelHistoryChina":null,"outsideReporting":null,"transmissionOutsideOfChina":null,"underInvestigation":null,"deaths":0},{"placeId":185,"placeName":"Guatemala","numOfInfected":6,"travelHistoryChina":null,"outsideReporting":null,"transmissionOutsideOfChina":null,"underInvestigation":null,"deaths":1},{"placeId":184,"placeName":"Uruguay","numOfInfected":6,"travelHistoryChina":null,"outsideReporting":null,"transmissionOutsideOfChina":null,"underInvestigation":null,"deaths":0},{"placeId":159,"placeName":"Cuba","numOfInfected":5,"travelHistoryChina":null,"outsideReporting":null,"transmissionOutsideOfChina":null,"underInvestigation":null,"deaths":0},{"placeId":167,"placeName":"Trinidad and Tobago","numOfInfected":5,"travelHistoryChina":null,"outsideReporting":null,"transmissionOutsideOfChina":null,"underInvestigation":null,"deaths":0},{"placeId":160,"placeName":"Guyana","numOfInfected":4,"travelHistoryChina":null,"outsideReporting":null,"transmissionOutsideOfChina":null,"underInvestigation":null,"deaths":1},{"placeId":186,"placeName":"Saint Lucia","numOfInfected":2,"travelHistoryChina":null,"outsideReporting":null,"transmissionOutsideOfChina":null,"underInvestigation":null,"deaths":0},{"placeId":165,"placeName":"Antigua and Barbuda","numOfInfected":1,"travelHistoryChina":null,"outsideReporting":null,"transmissionOutsideOfChina":null,"underInvestigation":null,"deaths":0},{"placeId":194,"placeName":"Bahamas","numOfInfected":1,"travelHistoryChina":null,"outsideReporting":null,"transmissionOutsideOfChina":null,"underInvestigation":null,"deaths":0},{"placeId":161,"placeName":"Saint Vincent and the Grenadines","numOfInfected":1,"travelHistoryChina":null,"outsideReporting":null,"transmissionOutsideOfChina":null,"underInvestigation":null,"deaths":0},{"placeId":187,"placeName":"Suriname","numOfInfected":1,"travelHistoryChina":null,"outsideReporting":null,"transmissionOutsideOfChina":null,"underInvestigation":null,"deaths":0},{"placeId":166,"placeName":"Guadeloupe","numOfInfected":18,"travelHistoryChina":null,"outsideReporting":null,"transmissionOutsideOfChina":null,"underInvestigation":null,"deaths":0},{"placeId":140,"placeName":"Martinique","numOfInfected":16,"travelHistoryChina":null,"outsideReporting":null,"transmissionOutsideOfChina":null,"underInvestigation":null,"deaths":0},{"placeId":139,"placeName":"French Guiana","numOfInfected":7,"travelHistoryChina":null,"outsideReporting":null,"transmissionOutsideOfChina":null,"underInvestigation":null,"deaths":0},{"placeId":175,"placeName":"Curacao","numOfInfected":3,"travelHistoryChina":null,"outsideReporting":null,"transmissionOutsideOfChina":null,"underInvestigation":null,"deaths":0},{"placeId":163,"placeName":"Puerto Rico","numOfInfected":3,"travelHistoryChina":null,"outsideReporting":null,"transmissionOutsideOfChina":null,"underInvestigation":null,"deaths":0},{"placeId":122,"placeName":"Saint Barthélemy","numOfInfected":3,"travelHistoryChina":null,"outsideReporting":null,"transmissionOutsideOfChina":null,"underInvestigation":null,"deaths":0},{"placeId":195,"placeName":"Aruba","numOfInfected":2,"travelHistoryChina":null,"outsideReporting":null,"transmissionOutsideOfChina":null,"underInvestigation":null,"deaths":0},{"placeId":121,"placeName":"Saint Martin","numOfInfected":2,"travelHistoryChina":null,"outsideReporting":null,"transmissionOutsideOfChina":null,"underInvestigation":null,"deaths":0},{"placeId":196,"placeName":"United States Virgin Islands","numOfInfected":2,"travelHistoryChina":null,"outsideReporting":null,"transmissionOutsideOfChina":null,"underInvestigation":null,"deaths":0},{"placeId":168,"placeName":"Cayman Islands","numOfInfected":1,"travelHistoryChina":null,"outsideReporting":null,"transmissionOutsideOfChina":null,"underInvestigation":null,"deaths":1},{"placeId":126,"placeName":"South Africa","numOfInfected":62,"travelHistoryChina":null,"outsideReporting":null,"transmissionOutsideOfChina":null,"underInvestigation":null,"deaths":0},{"placeId":74,"placeName":"Algeria","numOfInfected":60,"travelHistoryChina":null,"outsideReporting":null,"transmissionOutsideOfChina":null,"underInvestigation":null,"deaths":4},{"placeId":110,"placeName":"Senegal","numOfInfected":27,"travelHistoryChina":null,"outsideReporting":null,"transmissionOutsideOfChina":null,"underInvestigation":null,"deaths":0},{"placeId":151,"placeName":"Burkina Faso","numOfInfected":20,"travelHistoryChina":null,"outsideReporting":null,"transmissionOutsideOfChina":null,"underInvestigation":null,"deaths":0},{"placeId":188,"placeName":"Rwanda","numOfInfected":7,"travelHistoryChina":null,"outsideReporting":null,"transmissionOutsideOfChina":null,"underInvestigation":null,"deaths":0},{"placeId":156,"placeName":"Cote d’Ivoire","numOfInfected":6,"travelHistoryChina":null,"outsideReporting":null,"transmissionOutsideOfChina":null,"underInvestigation":null,"deaths":0},{"placeId":171,"placeName":"Ghana","numOfInfected":6,"travelHistoryChina":null,"outsideReporting":null,"transmissionOutsideOfChina":null,"underInvestigation":null,"deaths":0},{"placeId":125,"placeName":"Cameroon","numOfInfected":5,"travelHistoryChina":null,"outsideReporting":null,"transmissionOutsideOfChina":null,"underInvestigation":null,"deaths":0},{"placeId":169,"placeName":"Ethiopia","numOfInfected":5,"travelHistoryChina":null,"outsideReporting":null,"transmissionOutsideOfChina":null,"underInvestigation":null,"deaths":0},{"placeId":189,"placeName":"Seychelles","numOfInfected":4,"travelHistoryChina":null,"outsideReporting":null,"transmissionOutsideOfChina":null,"underInvestigation":null,"deaths":0},{"placeId":152,"placeName":"Democratic Republic of the Congo","numOfInfected":3,"travelHistoryChina":null,"outsideReporting":null,"transmissionOutsideOfChina":null,"underInvestigation":null,"deaths":0},{"placeId":173,"placeName":"Kenya","numOfInfected":3,"travelHistoryChina":null,"outsideReporting":null,"transmissionOutsideOfChina":null,"underInvestigation":null,"deaths":0},{"placeId":176,"placeName":"Namibia","numOfInfected":2,"travelHistoryChina":null,"outsideReporting":null,"transmissionOutsideOfChina":null,"underInvestigation":null,"deaths":0},{"placeId":88,"placeName":"Nigeria","numOfInfected":2,"travelHistoryChina":null,"outsideReporting":null,"transmissionOutsideOfChina":null,"underInvestigation":null,"deaths":0},{"placeId":197,"placeName":"Benin","numOfInfected":1,"travelHistoryChina":null,"outsideReporting":null,"transmissionOutsideOfChina":null,"underInvestigation":null,"deaths":0},{"placeId":177,"placeName":"Central African Republic","numOfInfected":1,"travelHistoryChina":null,"outsideReporting":null,"transmissionOutsideOfChina":null,"underInvestigation":null,"deaths":0},{"placeId":178,"placeName":"Congo","numOfInfected":1,"travelHistoryChina":null,"outsideReporting":null,"transmissionOutsideOfChina":null,"underInvestigation":null,"deaths":0},{"placeId":179,"placeName":"Equatorial Guinea","numOfInfected":1,"travelHistoryChina":null,"outsideReporting":null,"transmissionOutsideOfChina":null,"underInvestigation":null,"deaths":0},{"placeId":180,"placeName":"Eswatini","numOfInfected":1,"travelHistoryChina":null,"outsideReporting":null,"transmissionOutsideOfChina":null,"underInvestigation":null,"deaths":0},{"placeId":170,"placeName":"Gabon","numOfInfected":1,"travelHistoryChina":null,"outsideReporting":null,"transmissionOutsideOfChina":null,"underInvestigation":null,"deaths":0},{"placeId":172,"placeName":"Guinea","numOfInfected":1,"travelHistoryChina":null,"outsideReporting":null,"transmissionOutsideOfChina":null,"underInvestigation":null,"deaths":0},{"placeId":198,"placeName":"Liberia","numOfInfected":1,"travelHistoryChina":null,"outsideReporting":null,"transmissionOutsideOfChina":null,"underInvestigation":null,"deaths":0},{"placeId":181,"placeName":"Mauritania","numOfInfected":1,"travelHistoryChina":null,"outsideReporting":null,"transmissionOutsideOfChina":null,"underInvestigation":null,"deaths":0},{"placeId":132,"placeName":"Togo","numOfInfected":1,"travelHistoryChina":null,"outsideReporting":null,"transmissionOutsideOfChina":null,"underInvestigation":null,"deaths":0},{"placeId":199,"placeName":"United Republic of Tanzania","numOfInfected":1,"travelHistoryChina":null,"outsideReporting":null,"transmissionOutsideOfChina":null,"underInvestigation":null,"deaths":0},{"placeId":158,"placeName":"Réunion","numOfInfected":9,"travelHistoryChina":null,"outsideReporting":null,"transmissionOutsideOfChina":null,"underInvestigation":null,"deaths":0},{"placeId":182,"placeName":"Mayotte","numOfInfected":1,"travelHistoryChina":null,"outsideReporting":null,"transmissionOutsideOfChina":null,"underInvestigation":null,"deaths":0},{"placeId":43,"placeName":"Diamond Princess","numOfInfected":712,"travelHistoryChina":null,"outsideReporting":null,"transmissionOutsideOfChina":null,"underInvestigation":null,"deaths":7}]}