{"day":"2020-04-19","additionalInfo":{"countries":208},"areas":[{"placeId":21,"placeName":"China","numOfInfected":84201,"travelHistoryChina":null,"outsideReporting":null,"transmissionOutsideOfChina":null,"underInvestigation":null,"deaths":4642},{"placeId":6,"placeName":"Republic of Korea","numOfInfected":10661,"travelHistoryChina":null,"outsideReporting":null,"transmissionOutsideOfChina":null,"underInvestigation":null,"deaths":234},{"placeId":5,"placeName":"Japan","numOfInfected":10361,"travelHistoryChina":null,"outsideReporting":null,"transmissionOutsideOfChina":null,"underInvestigation":null,"deaths":161},{"placeId":24,"placeName":"Australia","numOfInfected":6586,"travelHistoryChina":null,"outsideReporting":null,"transmissionOutsideOfChina":null,"underInvestigation":null,"deaths":69},{"placeId":34,"placeName":"Philippines","numOfInfected":6087,"travelHistoryChina":null,"outsideReporting":null,"transmissionOutsideOfChina":null,"underInvestigation":null,"deaths":397},{"placeId":23,"placeName":"Singapore","numOfInfected":5992,"travelHistoryChina":null,"outsideReporting":null,"transmissionOutsideOfChina":null,"underInvestigation":null,"deaths":11},{"placeId":27,"placeName":"Malaysia","numOfInfected":5305,"travelHistoryChina":null,"outsideReporting":null,"transmissionOutsideOfChina":null,"underInvestigation":null,"deaths":88},{"placeId":84,"placeName":"New Zealand","numOfInfected":1098,"travelHistoryChina":null,"outsideReporting":null,"transmissionOutsideOfChina":null,"underInvestigation":null,"deaths":11},{"placeId":22,"placeName":"Viet Nam","numOfInfected":268,"travelHistoryChina":null,"outsideReporting":null,"transmissionOutsideOfChina":null,"underInvestigation":null,"deaths":0},{"placeId":144,"placeName":"Brunei Darussalam","numOfInfected":137,"travelHistoryChina":null,"outsideReporting":null,"transmissionOutsideOfChina":null,"underInvestigation":null,"deaths":1},{"placeId":32,"placeName":"Cambodia","numOfInfected":122,"travelHistoryChina":null,"outsideReporting":null,"transmissionOutsideOfChina":null,"underInvestigation":null,"deaths":0},{"placeId":145,"placeName":"Mongolia","numOfInfected":31,"travelHistoryChina":null,"outsideReporting":null,"transmissionOutsideOfChina":null,"underInvestigation":null,"deaths":0},{"placeId":237,"placeName":"Lao People's Democratic Republic","numOfInfected":19,"travelHistoryChina":null,"outsideReporting":null,"transmissionOutsideOfChina":null,"underInvestigation":null,"deaths":0},{"placeId":210,"placeName":"Fiji","numOfInfected":17,"travelHistoryChina":null,"outsideReporting":null,"transmissionOutsideOfChina":null,"underInvestigation":null,"deaths":0},{"placeId":212,"placeName":"Papua New Guinea","numOfInfected":7,"travelHistoryChina":null,"outsideReporting":null,"transmissionOutsideOfChina":null,"underInvestigation":null,"deaths":0},{"placeId":190,"placeName":"Guam","numOfInfected":136,"travelHistoryChina":null,"outsideReporting":null,"transmissionOutsideOfChina":null,"underInvestigation":null,"deaths":5},{"placeId":153,"placeName":"French Polynesia","numOfInfected":55,"travelHistoryChina":null,"outsideReporting":null,"transmissionOutsideOfChina":null,"underInvestigation":null,"deaths":0},{"placeId":211,"placeName":"New Caledonia","numOfInfected":18,"travelHistoryChina":null,"outsideReporting":null,"transmissionOutsideOfChina":null,"underInvestigation":null,"deaths":0},{"placeId":244,"placeName":"Northern Mariana Islands of the)","numOfInfected":14,"travelHistoryChina":null,"outsideReporting":null,"transmissionOutsideOfChina":null,"underInvestigation":null,"deaths":2},{"placeId":39,"placeName":"Spain","numOfInfected":191726,"travelHistoryChina":null,"outsideReporting":null,"transmissionOutsideOfChina":null,"underInvestigation":null,"deaths":20043},{"placeId":37,"placeName":"Italy","numOfInfected":175925,"travelHistoryChina":null,"outsideReporting":null,"transmissionOutsideOfChina":null,"underInvestigation":null,"deaths":23227},{"placeId":31,"placeName":"Germany","numOfInfected":139897,"travelHistoryChina":null,"outsideReporting":null,"transmissionOutsideOfChina":null,"underInvestigation":null,"deaths":4294},{"placeId":41,"placeName":"The United Kingdom","numOfInfected":114221,"travelHistoryChina":null,"outsideReporting":null,"transmissionOutsideOfChina":null,"underInvestigation":null,"deaths":15464},{"placeId":26,"placeName":"France","numOfInfected":110721,"travelHistoryChina":null,"outsideReporting":null,"transmissionOutsideOfChina":null,"underInvestigation":null,"deaths":19294},{"placeId":154,"placeName":"Turkey","numOfInfected":82329,"travelHistoryChina":null,"outsideReporting":null,"transmissionOutsideOfChina":null,"underInvestigation":null,"deaths":1890},{"placeId":38,"placeName":"Russian Federation","numOfInfected":42853,"travelHistoryChina":null,"outsideReporting":null,"transmissionOutsideOfChina":null,"underInvestigation":null,"deaths":361},{"placeId":42,"placeName":"Belgium","numOfInfected":37183,"travelHistoryChina":null,"outsideReporting":null,"transmissionOutsideOfChina":null,"underInvestigation":null,"deaths":5453},{"placeId":87,"placeName":"Netherlands","numOfInfected":31589,"travelHistoryChina":null,"outsideReporting":null,"transmissionOutsideOfChina":null,"underInvestigation":null,"deaths":3601},{"placeId":73,"placeName":"Switzerland","numOfInfected":27322,"travelHistoryChina":null,"outsideReporting":null,"transmissionOutsideOfChina":null,"underInvestigation":null,"deaths":1110},{"placeId":103,"placeName":"Portugal","numOfInfected":19685,"travelHistoryChina":null,"outsideReporting":null,"transmissionOutsideOfChina":null,"underInvestigation":null,"deaths":687},{"placeId":92,"placeName":"Ireland","numOfInfected":14758,"travelHistoryChina":null,"outsideReporting":null,"transmissionOutsideOfChina":null,"underInvestigation":null,"deaths":571},{"placeId":71,"placeName":"Austria","numOfInfected":14662,"travelHistoryChina":null,"outsideReporting":null,"transmissionOutsideOfChina":null,"underInvestigation":null,"deaths":443},{"placeId":40,"placeName":"Sweden","numOfInfected":13822,"travelHistoryChina":null,"outsideReporting":null,"transmissionOutsideOfChina":null,"underInvestigation":null,"deaths":1511},{"placeId":64,"placeName":"Israel","numOfInfected":13107,"travelHistoryChina":null,"outsideReporting":null,"transmissionOutsideOfChina":null,"underInvestigation":null,"deaths":158},{"placeId":111,"placeName":"Poland","numOfInfected":8742,"travelHistoryChina":null,"outsideReporting":null,"transmissionOutsideOfChina":null,"underInvestigation":null,"deaths":347},{"placeId":82,"placeName":"Romania","numOfInfected":8418,"travelHistoryChina":null,"outsideReporting":null,"transmissionOutsideOfChina":null,"underInvestigation":null,"deaths":417},{"placeId":76,"placeName":"Denmark","numOfInfected":7242,"travelHistoryChina":null,"outsideReporting":null,"transmissionOutsideOfChina":null,"underInvestigation":null,"deaths":346},{"placeId":81,"placeName":"Norway","numOfInfected":6984,"travelHistoryChina":null,"outsideReporting":null,"transmissionOutsideOfChina":null,"underInvestigation":null,"deaths":148},{"placeId":96,"placeName":"Czechia","numOfInfected":6654,"travelHistoryChina":null,"outsideReporting":null,"transmissionOutsideOfChina":null,"underInvestigation":null,"deaths":181},{"placeId":123,"placeName":"Serbia","numOfInfected":5994,"travelHistoryChina":null,"outsideReporting":null,"transmissionOutsideOfChina":null,"underInvestigation":null,"deaths":117},{"placeId":112,"placeName":"Ukraine","numOfInfected":5449,"travelHistoryChina":null,"outsideReporting":null,"transmissionOutsideOfChina":null,"underInvestigation":null,"deaths":141},{"placeId":85,"placeName":"Belarus","numOfInfected":4779,"travelHistoryChina":null,"outsideReporting":null,"transmissionOutsideOfChina":null,"underInvestigation":null,"deaths":45},{"placeId":36,"placeName":"Finland","numOfInfected":3681,"travelHistoryChina":null,"outsideReporting":null,"transmissionOutsideOfChina":null,"underInvestigation":null,"deaths":90},{"placeId":98,"placeName":"Luxembourg","numOfInfected":3537,"travelHistoryChina":null,"outsideReporting":null,"transmissionOutsideOfChina":null,"underInvestigation":null,"deaths":72},{"placeId":135,"placeName":"Republic of Moldova","numOfInfected":2351,"travelHistoryChina":null,"outsideReporting":null,"transmissionOutsideOfChina":null,"underInvestigation":null,"deaths":60},{"placeId":79,"placeName":"Greece","numOfInfected":2207,"travelHistoryChina":null,"outsideReporting":null,"transmissionOutsideOfChina":null,"underInvestigation":null,"deaths":105},{"placeId":116,"placeName":"Hungary","numOfInfected":1916,"travelHistoryChina":null,"outsideReporting":null,"transmissionOutsideOfChina":null,"underInvestigation":null,"deaths":189},{"placeId":72,"placeName":"Croatia","numOfInfected":1832,"travelHistoryChina":null,"outsideReporting":null,"transmissionOutsideOfChina":null,"underInvestigation":null,"deaths":39},{"placeId":97,"placeName":"Iceland","numOfInfected":1760,"travelHistoryChina":null,"outsideReporting":null,"transmissionOutsideOfChina":null,"underInvestigation":null,"deaths":9},{"placeId":174,"placeName":"Kazakhstan","numOfInfected":1546,"travelHistoryChina":null,"outsideReporting":null,"transmissionOutsideOfChina":null,"underInvestigation":null,"deaths":17},{"placeId":77,"placeName":"Estonia","numOfInfected":1512,"travelHistoryChina":null,"outsideReporting":null,"transmissionOutsideOfChina":null,"underInvestigation":null,"deaths":38},{"placeId":183,"placeName":"Uzbekistan","numOfInfected":1495,"travelHistoryChina":null,"outsideReporting":null,"transmissionOutsideOfChina":null,"underInvestigation":null,"deaths":5},{"placeId":90,"placeName":"Azerbaijan","numOfInfected":1373,"travelHistoryChina":null,"outsideReporting":null,"transmissionOutsideOfChina":null,"underInvestigation":null,"deaths":18},{"placeId":117,"placeName":"Slovenia","numOfInfected":1317,"travelHistoryChina":null,"outsideReporting":null,"transmissionOutsideOfChina":null,"underInvestigation":null,"deaths":70},{"placeId":86,"placeName":"Lithuania","numOfInfected":1298,"travelHistoryChina":null,"outsideReporting":null,"transmissionOutsideOfChina":null,"underInvestigation":null,"deaths":33},{"placeId":115,"placeName":"Bosnia and Herzegovina","numOfInfected":1268,"travelHistoryChina":null,"outsideReporting":null,"transmissionOutsideOfChina":null,"underInvestigation":null,"deaths":46},{"placeId":99,"placeName":"Armenia","numOfInfected":1248,"travelHistoryChina":null,"outsideReporting":null,"transmissionOutsideOfChina":null,"underInvestigation":null,"deaths":20},{"placeId":80,"placeName":"North Macedonia","numOfInfected":1170,"travelHistoryChina":null,"outsideReporting":null,"transmissionOutsideOfChina":null,"underInvestigation":null,"deaths":49},{"placeId":129,"placeName":"Slovakia","numOfInfected":1089,"travelHistoryChina":null,"outsideReporting":null,"transmissionOutsideOfChina":null,"underInvestigation":null,"deaths":11},{"placeId":134,"placeName":"Bulgaria","numOfInfected":878,"travelHistoryChina":null,"outsideReporting":null,"transmissionOutsideOfChina":null,"underInvestigation":null,"deaths":41},{"placeId":146,"placeName":"Cyprus","numOfInfected":761,"travelHistoryChina":null,"outsideReporting":null,"transmissionOutsideOfChina":null,"underInvestigation":null,"deaths":17},{"placeId":105,"placeName":"Latvia","numOfInfected":712,"travelHistoryChina":null,"outsideReporting":null,"transmissionOutsideOfChina":null,"underInvestigation":null,"deaths":5},{"placeId":104,"placeName":"Andorra","numOfInfected":704,"travelHistoryChina":null,"outsideReporting":null,"transmissionOutsideOfChina":null,"underInvestigation":null,"deaths":35},{"placeId":201,"placeName":"Kyrgyzstan","numOfInfected":554,"travelHistoryChina":null,"outsideReporting":null,"transmissionOutsideOfChina":null,"underInvestigation":null,"deaths":5},{"placeId":141,"placeName":"Albania","numOfInfected":548,"travelHistoryChina":null,"outsideReporting":null,"transmissionOutsideOfChina":null,"underInvestigation":null,"deaths":26},{"placeId":89,"placeName":"San Marino","numOfInfected":455,"travelHistoryChina":null,"outsideReporting":null,"transmissionOutsideOfChina":null,"underInvestigation":null,"deaths":39},{"placeId":133,"placeName":"Malta","numOfInfected":426,"travelHistoryChina":null,"outsideReporting":null,"transmissionOutsideOfChina":null,"underInvestigation":null,"deaths":3},{"placeId":78,"placeName":"Georgia","numOfInfected":394,"travelHistoryChina":null,"outsideReporting":null,"transmissionOutsideOfChina":null,"underInvestigation":null,"deaths":4},{"placeId":200,"placeName":"Montenegro","numOfInfected":308,"travelHistoryChina":null,"outsideReporting":null,"transmissionOutsideOfChina":null,"underInvestigation":null,"deaths":5},{"placeId":93,"placeName":"Monaco","numOfInfected":98,"travelHistoryChina":null,"outsideReporting":null,"transmissionOutsideOfChina":null,"underInvestigation":null,"deaths":1},{"placeId":118,"placeName":"Liechtenstein","numOfInfected":82,"travelHistoryChina":null,"outsideReporting":null,"transmissionOutsideOfChina":null,"underInvestigation":null,"deaths":1},{"placeId":127,"placeName":"Holy See","numOfInfected":8,"travelHistoryChina":null,"outsideReporting":null,"transmissionOutsideOfChina":null,"underInvestigation":null,"deaths":0},{"placeId":229,"placeName":"Kosovo","numOfInfected":510,"travelHistoryChina":null,"outsideReporting":null,"transmissionOutsideOfChina":null,"underInvestigation":null,"deaths":12},{"placeId":213,"placeName":"Isle of Man","numOfInfected":291,"travelHistoryChina":null,"outsideReporting":null,"transmissionOutsideOfChina":null,"underInvestigation":null,"deaths":4},{"placeId":147,"placeName":"Guernsey","numOfInfected":236,"travelHistoryChina":null,"outsideReporting":null,"transmissionOutsideOfChina":null,"underInvestigation":null,"deaths":9},{"placeId":157,"placeName":"Jersey","numOfInfected":234,"travelHistoryChina":null,"outsideReporting":null,"transmissionOutsideOfChina":null,"underInvestigation":null,"deaths":11},{"placeId":136,"placeName":"Faroe Islands","numOfInfected":184,"travelHistoryChina":null,"outsideReporting":null,"transmissionOutsideOfChina":null,"underInvestigation":null,"deaths":0},{"placeId":119,"placeName":"Gibraltar","numOfInfected":133,"travelHistoryChina":null,"outsideReporting":null,"transmissionOutsideOfChina":null,"underInvestigation":null,"deaths":0},{"placeId":209,"placeName":"Greenland","numOfInfected":11,"travelHistoryChina":null,"outsideReporting":null,"transmissionOutsideOfChina":null,"underInvestigation":null,"deaths":0},{"placeId":35,"placeName":"India","numOfInfected":15712,"travelHistoryChina":null,"outsideReporting":null,"transmissionOutsideOfChina":null,"underInvestigation":null,"deaths":507},{"placeId":100,"placeName":"Indonesia","numOfInfected":6248,"travelHistoryChina":null,"outsideReporting":null,"transmissionOutsideOfChina":null,"underInvestigation":null,"deaths":535},{"placeId":7,"placeName":"Thailand","numOfInfected":2765,"travelHistoryChina":null,"outsideReporting":null,"transmissionOutsideOfChina":null,"underInvestigation":null,"deaths":47},{"placeId":142,"placeName":"Bangladesh","numOfInfected":2144,"travelHistoryChina":null,"outsideReporting":null,"transmissionOutsideOfChina":null,"underInvestigation":null,"deaths":84},{"placeId":30,"placeName":"Sri Lanka","numOfInfected":254,"travelHistoryChina":null,"outsideReporting":null,"transmissionOutsideOfChina":null,"underInvestigation":null,"deaths":7},{"placeId":233,"placeName":"Myanmar","numOfInfected":107,"travelHistoryChina":null,"outsideReporting":null,"transmissionOutsideOfChina":null,"underInvestigation":null,"deaths":5},{"placeId":137,"placeName":"Maldives","numOfInfected":34,"travelHistoryChina":null,"outsideReporting":null,"transmissionOutsideOfChina":null,"underInvestigation":null,"deaths":0},{"placeId":25,"placeName":"Nepal","numOfInfected":31,"travelHistoryChina":null,"outsideReporting":null,"transmissionOutsideOfChina":null,"underInvestigation":null,"deaths":0},{"placeId":214,"placeName":"Timor-Leste","numOfInfected":19,"travelHistoryChina":null,"outsideReporting":null,"transmissionOutsideOfChina":null,"underInvestigation":null,"deaths":0},{"placeId":124,"placeName":"Bhutan","numOfInfected":5,"travelHistoryChina":null,"outsideReporting":null,"transmissionOutsideOfChina":null,"underInvestigation":null,"deaths":0},{"placeId":63,"placeName":"Iran","numOfInfected":80868,"travelHistoryChina":null,"outsideReporting":null,"transmissionOutsideOfChina":null,"underInvestigation":null,"deaths":5031},{"placeId":108,"placeName":"Saudi Arabia","numOfInfected":8274,"travelHistoryChina":null,"outsideReporting":null,"transmissionOutsideOfChina":null,"underInvestigation":null,"deaths":92},{"placeId":83,"placeName":"Pakistan","numOfInfected":7993,"travelHistoryChina":null,"outsideReporting":null,"transmissionOutsideOfChina":null,"underInvestigation":null,"deaths":159},{"placeId":33,"placeName":"United Arab Emirates","numOfInfected":6302,"travelHistoryChina":null,"outsideReporting":null,"transmissionOutsideOfChina":null,"underInvestigation":null,"deaths":37},{"placeId":94,"placeName":"Qatar","numOfInfected":5008,"travelHistoryChina":null,"outsideReporting":null,"transmissionOutsideOfChina":null,"underInvestigation":null,"deaths":8},{"placeId":62,"placeName":"Egypt","numOfInfected":3032,"travelHistoryChina":null,"outsideReporting":null,"transmissionOutsideOfChina":null,"underInvestigation":null,"deaths":224},{"placeId":107,"placeName":"Morocco","numOfInfected":2685,"travelHistoryChina":null,"outsideReporting":null,"transmissionOutsideOfChina":null,"underInvestigation":null,"deaths":137},{"placeId":69,"placeName":"Bahrain","numOfInfected":1773,"travelHistoryChina":null,"outsideReporting":null,"transmissionOutsideOfChina":null,"underInvestigation":null,"deaths":7},{"placeId":66,"placeName":"Kuwait","numOfInfected":1751,"travelHistoryChina":null,"outsideReporting":null,"transmissionOutsideOfChina":null,"underInvestigation":null,"deaths":6},{"placeId":67,"placeName":"Iraq","numOfInfected":1513,"travelHistoryChina":null,"outsideReporting":null,"transmissionOutsideOfChina":null,"underInvestigation":null,"deaths":82},{"placeId":70,"placeName":"Oman","numOfInfected":1266,"travelHistoryChina":null,"outsideReporting":null,"transmissionOutsideOfChina":null,"underInvestigation":null,"deaths":6},{"placeId":68,"placeName":"Afghanistan","numOfInfected":933,"travelHistoryChina":null,"outsideReporting":null,"transmissionOutsideOfChina":null,"underInvestigation":null,"deaths":30},{"placeId":109,"placeName":"Tunisia","numOfInfected":866,"travelHistoryChina":null,"outsideReporting":null,"transmissionOutsideOfChina":null,"underInvestigation":null,"deaths":37},{"placeId":202,"placeName":"Djibouti","numOfInfected":732,"travelHistoryChina":null,"outsideReporting":null,"transmissionOutsideOfChina":null,"underInvestigation":null,"deaths":2},{"placeId":65,"placeName":"Lebanon","numOfInfected":673,"travelHistoryChina":null,"outsideReporting":null,"transmissionOutsideOfChina":null,"underInvestigation":null,"deaths":21},{"placeId":106,"placeName":"Jordan","numOfInfected":413,"travelHistoryChina":null,"outsideReporting":null,"transmissionOutsideOfChina":null,"underInvestigation":null,"deaths":7},{"placeId":193,"placeName":"Somalia","numOfInfected":135,"travelHistoryChina":null,"outsideReporting":null,"transmissionOutsideOfChina":null,"underInvestigation":null,"deaths":7},{"placeId":162,"placeName":"Sudan","numOfInfected":66,"travelHistoryChina":null,"outsideReporting":null,"transmissionOutsideOfChina":null,"underInvestigation":null,"deaths":10},{"placeId":238,"placeName":"Libya","numOfInfected":49,"travelHistoryChina":null,"outsideReporting":null,"transmissionOutsideOfChina":null,"underInvestigation":null,"deaths":1},{"placeId":230,"placeName":"Syrian Arab Republic","numOfInfected":38,"travelHistoryChina":null,"outsideReporting":null,"transmissionOutsideOfChina":null,"underInvestigation":null,"deaths":2},{"placeId":254,"placeName":"Yemen","numOfInfected":1,"travelHistoryChina":null,"outsideReporting":null,"transmissionOutsideOfChina":null,"underInvestigation":null,"deaths":0},{"placeId":120,"placeName":"occupied Palestinian territory","numOfInfected":320,"travelHistoryChina":null,"outsideReporting":null,"transmissionOutsideOfChina":null,"underInvestigation":null,"deaths":2},{"placeId":20,"placeName":"United States of America","numOfInfected":695353,"travelHistoryChina":null,"outsideReporting":null,"transmissionOutsideOfChina":null,"underInvestigation":null,"deaths":32427},{"placeId":75,"placeName":"Brazil","numOfInfected":33682,"travelHistoryChina":null,"outsideReporting":null,"transmissionOutsideOfChina":null,"underInvestigation":null,"deaths":2141},{"placeId":28,"placeName":"Canada","numOfInfected":32400,"travelHistoryChina":null,"outsideReporting":null,"transmissionOutsideOfChina":null,"underInvestigation":null,"deaths":1346},{"placeId":131,"placeName":"Peru","numOfInfected":13489,"travelHistoryChina":null,"outsideReporting":null,"transmissionOutsideOfChina":null,"underInvestigation":null,"deaths":300},{"placeId":114,"placeName":"Chile","numOfInfected":9730,"travelHistoryChina":null,"outsideReporting":null,"transmissionOutsideOfChina":null,"underInvestigation":null,"deaths":126},{"placeId":95,"placeName":"Ecuador","numOfInfected":9022,"travelHistoryChina":null,"outsideReporting":null,"transmissionOutsideOfChina":null,"underInvestigation":null,"deaths":456},{"placeId":102,"placeName":"Mexico","numOfInfected":6875,"travelHistoryChina":null,"outsideReporting":null,"transmissionOutsideOfChina":null,"underInvestigation":null,"deaths":546},{"placeId":101,"placeName":"Dominican Republic","numOfInfected":4335,"travelHistoryChina":null,"outsideReporting":null,"transmissionOutsideOfChina":null,"underInvestigation":null,"deaths":217},{"placeId":148,"placeName":"Panama","numOfInfected":4210,"travelHistoryChina":null,"outsideReporting":null,"transmissionOutsideOfChina":null,"underInvestigation":null,"deaths":115},{"placeId":130,"placeName":"Colombia","numOfInfected":3439,"travelHistoryChina":null,"outsideReporting":null,"transmissionOutsideOfChina":null,"underInvestigation":null,"deaths":153},{"placeId":113,"placeName":"Argentina","numOfInfected":2784,"travelHistoryChina":null,"outsideReporting":null,"transmissionOutsideOfChina":null,"underInvestigation":null,"deaths":129},{"placeId":159,"placeName":"Cuba","numOfInfected":986,"travelHistoryChina":null,"outsideReporting":null,"transmissionOutsideOfChina":null,"underInvestigation":null,"deaths":32},{"placeId":138,"placeName":"Costa Rica","numOfInfected":649,"travelHistoryChina":null,"outsideReporting":null,"transmissionOutsideOfChina":null,"underInvestigation":null,"deaths":4},{"placeId":184,"placeName":"Uruguay","numOfInfected":508,"travelHistoryChina":null,"outsideReporting":null,"transmissionOutsideOfChina":null,"underInvestigation":null,"deaths":9},{"placeId":149,"placeName":"Bolivia State of)","numOfInfected":493,"travelHistoryChina":null,"outsideReporting":null,"transmissionOutsideOfChina":null,"underInvestigation":null,"deaths":31},{"placeId":155,"placeName":"Honduras","numOfInfected":457,"travelHistoryChina":null,"outsideReporting":null,"transmissionOutsideOfChina":null,"underInvestigation":null,"deaths":46},{"placeId":185,"placeName":"Guatemala","numOfInfected":235,"travelHistoryChina":null,"outsideReporting":null,"transmissionOutsideOfChina":null,"underInvestigation":null,"deaths":7},{"placeId":164,"placeName":"Venezuela Republic of)","numOfInfected":204,"travelHistoryChina":null,"outsideReporting":null,"transmissionOutsideOfChina":null,"underInvestigation":null,"deaths":9},{"placeId":143,"placeName":"Paraguay","numOfInfected":202,"travelHistoryChina":null,"outsideReporting":null,"transmissionOutsideOfChina":null,"underInvestigation":null,"deaths":8},{"placeId":217,"placeName":"El Salvador","numOfInfected":190,"travelHistoryChina":null,"outsideReporting":null,"transmissionOutsideOfChina":null,"underInvestigation":null,"deaths":7},{"placeId":150,"placeName":"Jamaica","numOfInfected":163,"travelHistoryChina":null,"outsideReporting":null,"transmissionOutsideOfChina":null,"underInvestigation":null,"deaths":5},{"placeId":167,"placeName":"Trinidad and Tobago","numOfInfected":114,"travelHistoryChina":null,"outsideReporting":null,"transmissionOutsideOfChina":null,"underInvestigation":null,"deaths":8},{"placeId":203,"placeName":"Barbados","numOfInfected":75,"travelHistoryChina":null,"outsideReporting":null,"transmissionOutsideOfChina":null,"underInvestigation":null,"deaths":5},{"placeId":160,"placeName":"Guyana","numOfInfected":63,"travelHistoryChina":null,"outsideReporting":null,"transmissionOutsideOfChina":null,"underInvestigation":null,"deaths":6},{"placeId":194,"placeName":"Bahamas","numOfInfected":54,"travelHistoryChina":null,"outsideReporting":null,"transmissionOutsideOfChina":null,"underInvestigation":null,"deaths":9},{"placeId":215,"placeName":"Haiti","numOfInfected":44,"travelHistoryChina":null,"outsideReporting":null,"transmissionOutsideOfChina":null,"underInvestigation":null,"deaths":3},{"placeId":165,"placeName":"Antigua and Barbuda","numOfInfected":23,"travelHistoryChina":null,"outsideReporting":null,"transmissionOutsideOfChina":null,"underInvestigation":null,"deaths":2},{"placeId":234,"placeName":"Belize","numOfInfected":18,"travelHistoryChina":null,"outsideReporting":null,"transmissionOutsideOfChina":null,"underInvestigation":null,"deaths":2},{"placeId":235,"placeName":"Dominica","numOfInfected":16,"travelHistoryChina":null,"outsideReporting":null,"transmissionOutsideOfChina":null,"underInvestigation":null,"deaths":0},{"placeId":186,"placeName":"Saint Lucia","numOfInfected":15,"travelHistoryChina":null,"outsideReporting":null,"transmissionOutsideOfChina":null,"underInvestigation":null,"deaths":0},{"placeId":239,"placeName":"Saint Kitts and Nevis","numOfInfected":14,"travelHistoryChina":null,"outsideReporting":null,"transmissionOutsideOfChina":null,"underInvestigation":null,"deaths":0},{"placeId":231,"placeName":"Grenada","numOfInfected":13,"travelHistoryChina":null,"outsideReporting":null,"transmissionOutsideOfChina":null,"underInvestigation":null,"deaths":0},{"placeId":161,"placeName":"Saint Vincent and the Grenadines","numOfInfected":12,"travelHistoryChina":null,"outsideReporting":null,"transmissionOutsideOfChina":null,"underInvestigation":null,"deaths":0},{"placeId":187,"placeName":"Suriname","numOfInfected":10,"travelHistoryChina":null,"outsideReporting":null,"transmissionOutsideOfChina":null,"underInvestigation":null,"deaths":1},{"placeId":216,"placeName":"Nicaragua","numOfInfected":9,"travelHistoryChina":null,"outsideReporting":null,"transmissionOutsideOfChina":null,"underInvestigation":null,"deaths":1},{"placeId":163,"placeName":"Puerto Rico","numOfInfected":1118,"travelHistoryChina":null,"outsideReporting":null,"transmissionOutsideOfChina":null,"underInvestigation":null,"deaths":60},{"placeId":140,"placeName":"Martinique","numOfInfected":163,"travelHistoryChina":null,"outsideReporting":null,"transmissionOutsideOfChina":null,"underInvestigation":null,"deaths":12},{"placeId":166,"placeName":"Guadeloupe","numOfInfected":145,"travelHistoryChina":null,"outsideReporting":null,"transmissionOutsideOfChina":null,"underInvestigation":null,"deaths":11},{"placeId":195,"placeName":"Aruba","numOfInfected":96,"travelHistoryChina":null,"outsideReporting":null,"transmissionOutsideOfChina":null,"underInvestigation":null,"deaths":2},{"placeId":139,"placeName":"French Guiana","numOfInfected":96,"travelHistoryChina":null,"outsideReporting":null,"transmissionOutsideOfChina":null,"underInvestigation":null,"deaths":0},{"placeId":218,"placeName":"Bermuda","numOfInfected":83,"travelHistoryChina":null,"outsideReporting":null,"transmissionOutsideOfChina":null,"underInvestigation":null,"deaths":5},{"placeId":168,"placeName":"Cayman Islands","numOfInfected":61,"travelHistoryChina":null,"outsideReporting":null,"transmissionOutsideOfChina":null,"underInvestigation":null,"deaths":1},{"placeId":219,"placeName":"Sint Maarten","numOfInfected":57,"travelHistoryChina":null,"outsideReporting":null,"transmissionOutsideOfChina":null,"underInvestigation":null,"deaths":9},{"placeId":196,"placeName":"United States Virgin Islands","numOfInfected":53,"travelHistoryChina":null,"outsideReporting":null,"transmissionOutsideOfChina":null,"underInvestigation":null,"deaths":3},{"placeId":121,"placeName":"Saint Martin","numOfInfected":37,"travelHistoryChina":null,"outsideReporting":null,"transmissionOutsideOfChina":null,"underInvestigation":null,"deaths":2},{"placeId":175,"placeName":"Curaçao","numOfInfected":14,"travelHistoryChina":null,"outsideReporting":null,"transmissionOutsideOfChina":null,"underInvestigation":null,"deaths":1},{"placeId":250,"placeName":"Falkland Islands","numOfInfected":11,"travelHistoryChina":null,"outsideReporting":null,"transmissionOutsideOfChina":null,"underInvestigation":null,"deaths":0},{"placeId":204,"placeName":"Montserrat","numOfInfected":11,"travelHistoryChina":null,"outsideReporting":null,"transmissionOutsideOfChina":null,"underInvestigation":null,"deaths":0},{"placeId":236,"placeName":"Turks and Caicos Islands","numOfInfected":11,"travelHistoryChina":null,"outsideReporting":null,"transmissionOutsideOfChina":null,"underInvestigation":null,"deaths":1},{"placeId":122,"placeName":"Saint Barthélemy","numOfInfected":6,"travelHistoryChina":null,"outsideReporting":null,"transmissionOutsideOfChina":null,"underInvestigation":null,"deaths":0},{"placeId":249,"placeName":"Bonaire, Sint Eustatius and Saba","numOfInfected":5,"travelHistoryChina":null,"outsideReporting":null,"transmissionOutsideOfChina":null,"underInvestigation":null,"deaths":0},{"placeId":242,"placeName":"Anguilla","numOfInfected":3,"travelHistoryChina":null,"outsideReporting":null,"transmissionOutsideOfChina":null,"underInvestigation":null,"deaths":0},{"placeId":243,"placeName":"British Virgin Islands","numOfInfected":3,"travelHistoryChina":null,"outsideReporting":null,"transmissionOutsideOfChina":null,"underInvestigation":null,"deaths":0},{"placeId":253,"placeName":"Saint Pierre and Miquelon","numOfInfected":1,"travelHistoryChina":null,"outsideReporting":null,"transmissionOutsideOfChina":null,"underInvestigation":null,"deaths":0},{"placeId":126,"placeName":"South Africa","numOfInfected":3034,"travelHistoryChina":null,"outsideReporting":null,"transmissionOutsideOfChina":null,"underInvestigation":null,"deaths":52},{"placeId":74,"placeName":"Algeria","numOfInfected":2534,"travelHistoryChina":null,"outsideReporting":null,"transmissionOutsideOfChina":null,"underInvestigation":null,"deaths":367},{"placeId":125,"placeName":"Cameroon","numOfInfected":1016,"travelHistoryChina":null,"outsideReporting":null,"transmissionOutsideOfChina":null,"underInvestigation":null,"deaths":21},{"placeId":171,"placeName":"Ghana","numOfInfected":834,"travelHistoryChina":null,"outsideReporting":null,"transmissionOutsideOfChina":null,"underInvestigation":null,"deaths":9},{"placeId":156,"placeName":"Côte d’Ivoire","numOfInfected":742,"travelHistoryChina":null,"outsideReporting":null,"transmissionOutsideOfChina":null,"underInvestigation":null,"deaths":6},{"placeId":224,"placeName":"Niger","numOfInfected":639,"travelHistoryChina":null,"outsideReporting":null,"transmissionOutsideOfChina":null,"underInvestigation":null,"deaths":19},{"placeId":151,"placeName":"Burkina Faso","numOfInfected":547,"travelHistoryChina":null,"outsideReporting":null,"transmissionOutsideOfChina":null,"underInvestigation":null,"deaths":32},{"placeId":172,"placeName":"Guinea","numOfInfected":477,"travelHistoryChina":null,"outsideReporting":null,"transmissionOutsideOfChina":null,"underInvestigation":null,"deaths":3},{"placeId":88,"placeName":"Nigeria","numOfInfected":373,"travelHistoryChina":null,"outsideReporting":null,"transmissionOutsideOfChina":null,"underInvestigation":null,"deaths":11},{"placeId":110,"placeName":"Senegal","numOfInfected":350,"travelHistoryChina":null,"outsideReporting":null,"transmissionOutsideOfChina":null,"underInvestigation":null,"deaths":3},{"placeId":152,"placeName":"Democratic Republic of the Congo","numOfInfected":327,"travelHistoryChina":null,"outsideReporting":null,"transmissionOutsideOfChina":null,"underInvestigation":null,"deaths":25},{"placeId":206,"placeName":"Mauritius","numOfInfected":325,"travelHistoryChina":null,"outsideReporting":null,"transmissionOutsideOfChina":null,"underInvestigation":null,"deaths":9},{"placeId":173,"placeName":"Kenya","numOfInfected":262,"travelHistoryChina":null,"outsideReporting":null,"transmissionOutsideOfChina":null,"underInvestigation":null,"deaths":12},{"placeId":241,"placeName":"Mali","numOfInfected":216,"travelHistoryChina":null,"outsideReporting":null,"transmissionOutsideOfChina":null,"underInvestigation":null,"deaths":13},{"placeId":199,"placeName":"United Republic of Tanzania","numOfInfected":148,"travelHistoryChina":null,"outsideReporting":null,"transmissionOutsideOfChina":null,"underInvestigation":null,"deaths":5},{"placeId":188,"placeName":"Rwanda","numOfInfected":144,"travelHistoryChina":null,"outsideReporting":null,"transmissionOutsideOfChina":null,"underInvestigation":null,"deaths":0},{"placeId":178,"placeName":"Congo","numOfInfected":143,"travelHistoryChina":null,"outsideReporting":null,"transmissionOutsideOfChina":null,"underInvestigation":null,"deaths":6},{"placeId":225,"placeName":"Madagascar","numOfInfected":120,"travelHistoryChina":null,"outsideReporting":null,"transmissionOutsideOfChina":null,"underInvestigation":null,"deaths":0},{"placeId":170,"placeName":"Gabon","numOfInfected":108,"travelHistoryChina":null,"outsideReporting":null,"transmissionOutsideOfChina":null,"underInvestigation":null,"deaths":1},{"placeId":169,"placeName":"Ethiopia","numOfInfected":105,"travelHistoryChina":null,"outsideReporting":null,"transmissionOutsideOfChina":null,"underInvestigation":null,"deaths":3},{"placeId":132,"placeName":"Togo","numOfInfected":83,"travelHistoryChina":null,"outsideReporting":null,"transmissionOutsideOfChina":null,"underInvestigation":null,"deaths":5},{"placeId":198,"placeName":"Liberia","numOfInfected":81,"travelHistoryChina":null,"outsideReporting":null,"transmissionOutsideOfChina":null,"underInvestigation":null,"deaths":7},{"placeId":179,"placeName":"Equatorial Guinea","numOfInfected":79,"travelHistoryChina":null,"outsideReporting":null,"transmissionOutsideOfChina":null,"underInvestigation":null,"deaths":0},{"placeId":207,"placeName":"Zambia","numOfInfected":57,"travelHistoryChina":null,"outsideReporting":null,"transmissionOutsideOfChina":null,"underInvestigation":null,"deaths":2},{"placeId":221,"placeName":"Cabo Verde","numOfInfected":55,"travelHistoryChina":null,"outsideReporting":null,"transmissionOutsideOfChina":null,"underInvestigation":null,"deaths":1},{"placeId":228,"placeName":"Uganda","numOfInfected":55,"travelHistoryChina":null,"outsideReporting":null,"transmissionOutsideOfChina":null,"underInvestigation":null,"deaths":0},{"placeId":240,"placeName":"Guinea -Bissau","numOfInfected":50,"travelHistoryChina":null,"outsideReporting":null,"transmissionOutsideOfChina":null,"underInvestigation":null,"deaths":0},{"placeId":227,"placeName":"Eritrea","numOfInfected":39,"travelHistoryChina":null,"outsideReporting":null,"transmissionOutsideOfChina":null,"underInvestigation":null,"deaths":0},{"placeId":197,"placeName":"Benin","numOfInfected":37,"travelHistoryChina":null,"outsideReporting":null,"transmissionOutsideOfChina":null,"underInvestigation":null,"deaths":1},{"placeId":222,"placeName":"Chad","numOfInfected":33,"travelHistoryChina":null,"outsideReporting":null,"transmissionOutsideOfChina":null,"underInvestigation":null,"deaths":0},{"placeId":232,"placeName":"Mozambique","numOfInfected":31,"travelHistoryChina":null,"outsideReporting":null,"transmissionOutsideOfChina":null,"underInvestigation":null,"deaths":0},{"placeId":247,"placeName":"Sierra Leone","numOfInfected":30,"travelHistoryChina":null,"outsideReporting":null,"transmissionOutsideOfChina":null,"underInvestigation":null,"deaths":0},{"placeId":223,"placeName":"Zimbabwe","numOfInfected":25,"travelHistoryChina":null,"outsideReporting":null,"transmissionOutsideOfChina":null,"underInvestigation":null,"deaths":3},{"placeId":180,"placeName":"Eswatini","numOfInfected":22,"travelHistoryChina":null,"outsideReporting":null,"transmissionOutsideOfChina":null,"underInvestigation":null,"deaths":1},{"placeId":226,"placeName":"Angola","numOfInfected":19,"travelHistoryChina":null,"outsideReporting":null,"transmissionOutsideOfChina":null,"underInvestigation":null,"deaths":2},{"placeId":248,"placeName":"Malawi","numOfInfected":17,"travelHistoryChina":null,"outsideReporting":null,"transmissionOutsideOfChina":null,"underInvestigation":null,"deaths":2},{"placeId":176,"placeName":"Namibia","numOfInfected":16,"travelHistoryChina":null,"outsideReporting":null,"transmissionOutsideOfChina":null,"underInvestigation":null,"deaths":0},{"placeId":245,"placeName":"Botswana","numOfInfected":15,"travelHistoryChina":null,"outsideReporting":null,"transmissionOutsideOfChina":null,"underInvestigation":null,"deaths":1},{"placeId":177,"placeName":"Central African Republic","numOfInfected":12,"travelHistoryChina":null,"outsideReporting":null,"transmissionOutsideOfChina":null,"underInvestigation":null,"deaths":0},{"placeId":189,"placeName":"Seychelles","numOfInfected":11,"travelHistoryChina":null,"outsideReporting":null,"transmissionOutsideOfChina":null,"underInvestigation":null,"deaths":0},{"placeId":208,"placeName":"Gambia","numOfInfected":9,"travelHistoryChina":null,"outsideReporting":null,"transmissionOutsideOfChina":null,"underInvestigation":null,"deaths":1},{"placeId":181,"placeName":"Mauritania","numOfInfected":7,"travelHistoryChina":null,"outsideReporting":null,"transmissionOutsideOfChina":null,"underInvestigation":null,"deaths":1},{"placeId":246,"placeName":"Burundi","numOfInfected":5,"travelHistoryChina":null,"outsideReporting":null,"transmissionOutsideOfChina":null,"underInvestigation":null,"deaths":0},{"placeId":252,"placeName":"São Tomé and Príncipe","numOfInfected":4,"travelHistoryChina":null,"outsideReporting":null,"transmissionOutsideOfChina":null,"underInvestigation":null,"deaths":0},{"placeId":251,"placeName":"South Sudan","numOfInfected":4,"travelHistoryChina":null,"outsideReporting":null,"transmissionOutsideOfChina":null,"underInvestigation":null,"deaths":0},{"placeId":158,"placeName":"Réunion","numOfInfected":407,"travelHistoryChina":null,"outsideReporting":null,"transmissionOutsideOfChina":null,"underInvestigation":null,"deaths":0},{"placeId":182,"placeName":"Mayotte","numOfInfected":245,"travelHistoryChina":null,"outsideReporting":null,"transmissionOutsideOfChina":null,"underInvestigation":null,"deaths":4}]}