{"day":"2020-03-22","additionalInfo":{"countries":183},"areas":[{"placeId":21,"placeName":"China","numOfInfected":81498,"travelHistoryChina":null,"outsideReporting":null,"transmissionOutsideOfChina":null,"underInvestigation":null,"deaths":3267},{"placeId":6,"placeName":"Republic of Korea","numOfInfected":8897,"travelHistoryChina":null,"outsideReporting":null,"transmissionOutsideOfChina":null,"underInvestigation":null,"deaths":104},{"placeId":27,"placeName":"Malaysia","numOfInfected":1183,"travelHistoryChina":null,"outsideReporting":null,"transmissionOutsideOfChina":null,"underInvestigation":null,"deaths":3},{"placeId":24,"placeName":"Australia","numOfInfected":1081,"travelHistoryChina":null,"outsideReporting":null,"transmissionOutsideOfChina":null,"underInvestigation":null,"deaths":7},{"placeId":5,"placeName":"Japan","numOfInfected":1046,"travelHistoryChina":null,"outsideReporting":null,"transmissionOutsideOfChina":null,"underInvestigation":null,"deaths":36},{"placeId":23,"placeName":"Singapore","numOfInfected":432,"travelHistoryChina":null,"outsideReporting":null,"transmissionOutsideOfChina":null,"underInvestigation":null,"deaths":2},{"placeId":34,"placeName":"Philippines","numOfInfected":307,"travelHistoryChina":null,"outsideReporting":null,"transmissionOutsideOfChina":null,"underInvestigation":null,"deaths":19},{"placeId":22,"placeName":"Viet Nam","numOfInfected":94,"travelHistoryChina":null,"outsideReporting":null,"transmissionOutsideOfChina":null,"underInvestigation":null,"deaths":0},{"placeId":144,"placeName":"Brunei Darussalam","numOfInfected":83,"travelHistoryChina":null,"outsideReporting":null,"transmissionOutsideOfChina":null,"underInvestigation":null,"deaths":0},{"placeId":84,"placeName":"New Zealand","numOfInfected":66,"travelHistoryChina":null,"outsideReporting":null,"transmissionOutsideOfChina":null,"underInvestigation":null,"deaths":0},{"placeId":32,"placeName":"Cambodia","numOfInfected":53,"travelHistoryChina":null,"outsideReporting":null,"transmissionOutsideOfChina":null,"underInvestigation":null,"deaths":0},{"placeId":145,"placeName":"Mongolia","numOfInfected":10,"travelHistoryChina":null,"outsideReporting":null,"transmissionOutsideOfChina":null,"underInvestigation":null,"deaths":0},{"placeId":210,"placeName":"Fiji","numOfInfected":2,"travelHistoryChina":null,"outsideReporting":null,"transmissionOutsideOfChina":null,"underInvestigation":null,"deaths":0},{"placeId":212,"placeName":"Papua New Guinea","numOfInfected":1,"travelHistoryChina":null,"outsideReporting":null,"transmissionOutsideOfChina":null,"underInvestigation":null,"deaths":0},{"placeId":153,"placeName":"French Polynesia","numOfInfected":15,"travelHistoryChina":null,"outsideReporting":null,"transmissionOutsideOfChina":null,"underInvestigation":null,"deaths":0},{"placeId":190,"placeName":"Guam","numOfInfected":15,"travelHistoryChina":null,"outsideReporting":null,"transmissionOutsideOfChina":null,"underInvestigation":null,"deaths":0},{"placeId":211,"placeName":"New Caledonia","numOfInfected":4,"travelHistoryChina":null,"outsideReporting":null,"transmissionOutsideOfChina":null,"underInvestigation":null,"deaths":0},{"placeId":37,"placeName":"Italy","numOfInfected":53578,"travelHistoryChina":null,"outsideReporting":null,"transmissionOutsideOfChina":null,"underInvestigation":null,"deaths":4827},{"placeId":39,"placeName":"Spain","numOfInfected":24926,"travelHistoryChina":null,"outsideReporting":null,"transmissionOutsideOfChina":null,"underInvestigation":null,"deaths":1326},{"placeId":31,"placeName":"Germany","numOfInfected":21463,"travelHistoryChina":null,"outsideReporting":null,"transmissionOutsideOfChina":null,"underInvestigation":null,"deaths":67},{"placeId":26,"placeName":"France","numOfInfected":14296,"travelHistoryChina":null,"outsideReporting":null,"transmissionOutsideOfChina":null,"underInvestigation":null,"deaths":562},{"placeId":73,"placeName":"Switzerland","numOfInfected":6077,"travelHistoryChina":null,"outsideReporting":null,"transmissionOutsideOfChina":null,"underInvestigation":null,"deaths":56},{"placeId":41,"placeName":"The United Kingdom","numOfInfected":5018,"travelHistoryChina":null,"outsideReporting":null,"transmissionOutsideOfChina":null,"underInvestigation":null,"deaths":233},{"placeId":87,"placeName":"Netherlands","numOfInfected":3631,"travelHistoryChina":null,"outsideReporting":null,"transmissionOutsideOfChina":null,"underInvestigation":null,"deaths":136},{"placeId":71,"placeName":"Austria","numOfInfected":3024,"travelHistoryChina":null,"outsideReporting":null,"transmissionOutsideOfChina":null,"underInvestigation":null,"deaths":8},{"placeId":42,"placeName":"Belgium","numOfInfected":2815,"travelHistoryChina":null,"outsideReporting":null,"transmissionOutsideOfChina":null,"underInvestigation":null,"deaths":67},{"placeId":81,"placeName":"Norway","numOfInfected":1926,"travelHistoryChina":null,"outsideReporting":null,"transmissionOutsideOfChina":null,"underInvestigation":null,"deaths":7},{"placeId":40,"placeName":"Sweden","numOfInfected":1746,"travelHistoryChina":null,"outsideReporting":null,"transmissionOutsideOfChina":null,"underInvestigation":null,"deaths":20},{"placeId":76,"placeName":"Denmark","numOfInfected":1326,"travelHistoryChina":null,"outsideReporting":null,"transmissionOutsideOfChina":null,"underInvestigation":null,"deaths":13},{"placeId":103,"placeName":"Portugal","numOfInfected":1280,"travelHistoryChina":null,"outsideReporting":null,"transmissionOutsideOfChina":null,"underInvestigation":null,"deaths":12},{"placeId":96,"placeName":"Czechia","numOfInfected":995,"travelHistoryChina":null,"outsideReporting":null,"transmissionOutsideOfChina":null,"underInvestigation":null,"deaths":0},{"placeId":154,"placeName":"Turkey","numOfInfected":947,"travelHistoryChina":null,"outsideReporting":null,"transmissionOutsideOfChina":null,"underInvestigation":null,"deaths":21},{"placeId":64,"placeName":"Israel","numOfInfected":883,"travelHistoryChina":null,"outsideReporting":null,"transmissionOutsideOfChina":null,"underInvestigation":null,"deaths":1},{"placeId":92,"placeName":"Ireland","numOfInfected":785,"travelHistoryChina":null,"outsideReporting":null,"transmissionOutsideOfChina":null,"underInvestigation":null,"deaths":3},{"placeId":98,"placeName":"Luxembourg","numOfInfected":670,"travelHistoryChina":null,"outsideReporting":null,"transmissionOutsideOfChina":null,"underInvestigation":null,"deaths":8},{"placeId":111,"placeName":"Poland","numOfInfected":536,"travelHistoryChina":null,"outsideReporting":null,"transmissionOutsideOfChina":null,"underInvestigation":null,"deaths":5},{"placeId":79,"placeName":"Greece","numOfInfected":530,"travelHistoryChina":null,"outsideReporting":null,"transmissionOutsideOfChina":null,"underInvestigation":null,"deaths":13},{"placeId":36,"placeName":"Finland","numOfInfected":521,"travelHistoryChina":null,"outsideReporting":null,"transmissionOutsideOfChina":null,"underInvestigation":null,"deaths":1},{"placeId":97,"placeName":"Iceland","numOfInfected":473,"travelHistoryChina":null,"outsideReporting":null,"transmissionOutsideOfChina":null,"underInvestigation":null,"deaths":1},{"placeId":117,"placeName":"Slovenia","numOfInfected":383,"travelHistoryChina":null,"outsideReporting":null,"transmissionOutsideOfChina":null,"underInvestigation":null,"deaths":1},{"placeId":82,"placeName":"Romania","numOfInfected":367,"travelHistoryChina":null,"outsideReporting":null,"transmissionOutsideOfChina":null,"underInvestigation":null,"deaths":0},{"placeId":77,"placeName":"Estonia","numOfInfected":306,"travelHistoryChina":null,"outsideReporting":null,"transmissionOutsideOfChina":null,"underInvestigation":null,"deaths":0},{"placeId":38,"placeName":"Russian Federation","numOfInfected":306,"travelHistoryChina":null,"outsideReporting":null,"transmissionOutsideOfChina":null,"underInvestigation":null,"deaths":0},{"placeId":72,"placeName":"Croatia","numOfInfected":206,"travelHistoryChina":null,"outsideReporting":null,"transmissionOutsideOfChina":null,"underInvestigation":null,"deaths":0},{"placeId":129,"placeName":"Slovakia","numOfInfected":178,"travelHistoryChina":null,"outsideReporting":null,"transmissionOutsideOfChina":null,"underInvestigation":null,"deaths":0},{"placeId":123,"placeName":"Serbia","numOfInfected":173,"travelHistoryChina":null,"outsideReporting":null,"transmissionOutsideOfChina":null,"underInvestigation":null,"deaths":1},{"placeId":134,"placeName":"Bulgaria","numOfInfected":163,"travelHistoryChina":null,"outsideReporting":null,"transmissionOutsideOfChina":null,"underInvestigation":null,"deaths":3},{"placeId":99,"placeName":"Armenia","numOfInfected":160,"travelHistoryChina":null,"outsideReporting":null,"transmissionOutsideOfChina":null,"underInvestigation":null,"deaths":0},{"placeId":89,"placeName":"San Marino","numOfInfected":151,"travelHistoryChina":null,"outsideReporting":null,"transmissionOutsideOfChina":null,"underInvestigation":null,"deaths":20},{"placeId":116,"placeName":"Hungary","numOfInfected":131,"travelHistoryChina":null,"outsideReporting":null,"transmissionOutsideOfChina":null,"underInvestigation":null,"deaths":4},{"placeId":105,"placeName":"Latvia","numOfInfected":124,"travelHistoryChina":null,"outsideReporting":null,"transmissionOutsideOfChina":null,"underInvestigation":null,"deaths":0},{"placeId":86,"placeName":"Lithuania","numOfInfected":105,"travelHistoryChina":null,"outsideReporting":null,"transmissionOutsideOfChina":null,"underInvestigation":null,"deaths":1},{"placeId":115,"placeName":"Bosnia and Herzegovina","numOfInfected":92,"travelHistoryChina":null,"outsideReporting":null,"transmissionOutsideOfChina":null,"underInvestigation":null,"deaths":1},{"placeId":104,"placeName":"Andorra","numOfInfected":88,"travelHistoryChina":null,"outsideReporting":null,"transmissionOutsideOfChina":null,"underInvestigation":null,"deaths":0},{"placeId":80,"placeName":"North Macedonia","numOfInfected":85,"travelHistoryChina":null,"outsideReporting":null,"transmissionOutsideOfChina":null,"underInvestigation":null,"deaths":0},{"placeId":146,"placeName":"Cyprus","numOfInfected":84,"travelHistoryChina":null,"outsideReporting":null,"transmissionOutsideOfChina":null,"underInvestigation":null,"deaths":0},{"placeId":135,"placeName":"Republic of Moldova","numOfInfected":80,"travelHistoryChina":null,"outsideReporting":null,"transmissionOutsideOfChina":null,"underInvestigation":null,"deaths":1},{"placeId":141,"placeName":"Albania","numOfInfected":76,"travelHistoryChina":null,"outsideReporting":null,"transmissionOutsideOfChina":null,"underInvestigation":null,"deaths":2},{"placeId":85,"placeName":"Belarus","numOfInfected":76,"travelHistoryChina":null,"outsideReporting":null,"transmissionOutsideOfChina":null,"underInvestigation":null,"deaths":0},{"placeId":133,"placeName":"Malta","numOfInfected":73,"travelHistoryChina":null,"outsideReporting":null,"transmissionOutsideOfChina":null,"underInvestigation":null,"deaths":0},{"placeId":174,"placeName":"Kazakhstan","numOfInfected":56,"travelHistoryChina":null,"outsideReporting":null,"transmissionOutsideOfChina":null,"underInvestigation":null,"deaths":0},{"placeId":90,"placeName":"Azerbaijan","numOfInfected":53,"travelHistoryChina":null,"outsideReporting":null,"transmissionOutsideOfChina":null,"underInvestigation":null,"deaths":1},{"placeId":78,"placeName":"Georgia","numOfInfected":49,"travelHistoryChina":null,"outsideReporting":null,"transmissionOutsideOfChina":null,"underInvestigation":null,"deaths":0},{"placeId":112,"placeName":"Ukraine","numOfInfected":47,"travelHistoryChina":null,"outsideReporting":null,"transmissionOutsideOfChina":null,"underInvestigation":null,"deaths":3},{"placeId":118,"placeName":"Liechtenstein","numOfInfected":36,"travelHistoryChina":null,"outsideReporting":null,"transmissionOutsideOfChina":null,"underInvestigation":null,"deaths":0},{"placeId":183,"placeName":"Uzbekistan","numOfInfected":33,"travelHistoryChina":null,"outsideReporting":null,"transmissionOutsideOfChina":null,"underInvestigation":null,"deaths":0},{"placeId":93,"placeName":"Monaco","numOfInfected":18,"travelHistoryChina":null,"outsideReporting":null,"transmissionOutsideOfChina":null,"underInvestigation":null,"deaths":0},{"placeId":201,"placeName":"Kyrgyzstan","numOfInfected":14,"travelHistoryChina":null,"outsideReporting":null,"transmissionOutsideOfChina":null,"underInvestigation":null,"deaths":0},{"placeId":200,"placeName":"Montenegro","numOfInfected":14,"travelHistoryChina":null,"outsideReporting":null,"transmissionOutsideOfChina":null,"underInvestigation":null,"deaths":0},{"placeId":127,"placeName":"Holy See","numOfInfected":1,"travelHistoryChina":null,"outsideReporting":null,"transmissionOutsideOfChina":null,"underInvestigation":null,"deaths":0},{"placeId":136,"placeName":"Faroe Islands","numOfInfected":92,"travelHistoryChina":null,"outsideReporting":null,"transmissionOutsideOfChina":null,"underInvestigation":null,"deaths":0},{"placeId":157,"placeName":"Jersey","numOfInfected":12,"travelHistoryChina":null,"outsideReporting":null,"transmissionOutsideOfChina":null,"underInvestigation":null,"deaths":0},{"placeId":119,"placeName":"Gibraltar","numOfInfected":10,"travelHistoryChina":null,"outsideReporting":null,"transmissionOutsideOfChina":null,"underInvestigation":null,"deaths":0},{"placeId":209,"placeName":"Greenland","numOfInfected":2,"travelHistoryChina":null,"outsideReporting":null,"transmissionOutsideOfChina":null,"underInvestigation":null,"deaths":0},{"placeId":213,"placeName":"Isle of Man","numOfInfected":2,"travelHistoryChina":null,"outsideReporting":null,"transmissionOutsideOfChina":null,"underInvestigation":null,"deaths":0},{"placeId":147,"placeName":"Guernsey","numOfInfected":1,"travelHistoryChina":null,"outsideReporting":null,"transmissionOutsideOfChina":null,"underInvestigation":null,"deaths":0},{"placeId":100,"placeName":"Indonesia","numOfInfected":450,"travelHistoryChina":null,"outsideReporting":null,"transmissionOutsideOfChina":null,"underInvestigation":null,"deaths":38},{"placeId":7,"placeName":"Thailand","numOfInfected":411,"travelHistoryChina":null,"outsideReporting":null,"transmissionOutsideOfChina":null,"underInvestigation":null,"deaths":1},{"placeId":35,"placeName":"India","numOfInfected":283,"travelHistoryChina":null,"outsideReporting":null,"transmissionOutsideOfChina":null,"underInvestigation":null,"deaths":4},{"placeId":30,"placeName":"Sri Lanka","numOfInfected":72,"travelHistoryChina":null,"outsideReporting":null,"transmissionOutsideOfChina":null,"underInvestigation":null,"deaths":0},{"placeId":142,"placeName":"Bangladesh","numOfInfected":24,"travelHistoryChina":null,"outsideReporting":null,"transmissionOutsideOfChina":null,"underInvestigation":null,"deaths":2},{"placeId":137,"placeName":"Maldives","numOfInfected":13,"travelHistoryChina":null,"outsideReporting":null,"transmissionOutsideOfChina":null,"underInvestigation":null,"deaths":0},{"placeId":124,"placeName":"Bhutan","numOfInfected":2,"travelHistoryChina":null,"outsideReporting":null,"transmissionOutsideOfChina":null,"underInvestigation":null,"deaths":0},{"placeId":25,"placeName":"Nepal","numOfInfected":1,"travelHistoryChina":null,"outsideReporting":null,"transmissionOutsideOfChina":null,"underInvestigation":null,"deaths":0},{"placeId":214,"placeName":"Timor -Leste","numOfInfected":1,"travelHistoryChina":null,"outsideReporting":null,"transmissionOutsideOfChina":null,"underInvestigation":null,"deaths":0},{"placeId":63,"placeName":"Iran","numOfInfected":20610,"travelHistoryChina":null,"outsideReporting":null,"transmissionOutsideOfChina":null,"underInvestigation":null,"deaths":1556},{"placeId":83,"placeName":"Pakistan","numOfInfected":495,"travelHistoryChina":null,"outsideReporting":null,"transmissionOutsideOfChina":null,"underInvestigation":null,"deaths":3},{"placeId":94,"placeName":"Qatar","numOfInfected":470,"travelHistoryChina":null,"outsideReporting":null,"transmissionOutsideOfChina":null,"underInvestigation":null,"deaths":0},{"placeId":108,"placeName":"Saudi Arabia","numOfInfected":392,"travelHistoryChina":null,"outsideReporting":null,"transmissionOutsideOfChina":null,"underInvestigation":null,"deaths":0},{"placeId":69,"placeName":"Bahrain","numOfInfected":306,"travelHistoryChina":null,"outsideReporting":null,"transmissionOutsideOfChina":null,"underInvestigation":null,"deaths":1},{"placeId":62,"placeName":"Egypt","numOfInfected":285,"travelHistoryChina":null,"outsideReporting":null,"transmissionOutsideOfChina":null,"underInvestigation":null,"deaths":8},{"placeId":67,"placeName":"Iraq","numOfInfected":214,"travelHistoryChina":null,"outsideReporting":null,"transmissionOutsideOfChina":null,"underInvestigation":null,"deaths":17},{"placeId":65,"placeName":"Lebanon","numOfInfected":206,"travelHistoryChina":null,"outsideReporting":null,"transmissionOutsideOfChina":null,"underInvestigation":null,"deaths":4},{"placeId":66,"placeName":"Kuwait","numOfInfected":176,"travelHistoryChina":null,"outsideReporting":null,"transmissionOutsideOfChina":null,"underInvestigation":null,"deaths":0},{"placeId":33,"placeName":"United Arab Emirates","numOfInfected":153,"travelHistoryChina":null,"outsideReporting":null,"transmissionOutsideOfChina":null,"underInvestigation":null,"deaths":2},{"placeId":107,"placeName":"Morocco","numOfInfected":86,"travelHistoryChina":null,"outsideReporting":null,"transmissionOutsideOfChina":null,"underInvestigation":null,"deaths":3},{"placeId":106,"placeName":"Jordan","numOfInfected":84,"travelHistoryChina":null,"outsideReporting":null,"transmissionOutsideOfChina":null,"underInvestigation":null,"deaths":0},{"placeId":109,"placeName":"Tunisia","numOfInfected":60,"travelHistoryChina":null,"outsideReporting":null,"transmissionOutsideOfChina":null,"underInvestigation":null,"deaths":1},{"placeId":70,"placeName":"Oman","numOfInfected":52,"travelHistoryChina":null,"outsideReporting":null,"transmissionOutsideOfChina":null,"underInvestigation":null,"deaths":0},{"placeId":68,"placeName":"Afghanistan","numOfInfected":24,"travelHistoryChina":null,"outsideReporting":null,"transmissionOutsideOfChina":null,"underInvestigation":null,"deaths":0},{"placeId":162,"placeName":"Sudan","numOfInfected":2,"travelHistoryChina":null,"outsideReporting":null,"transmissionOutsideOfChina":null,"underInvestigation":null,"deaths":1},{"placeId":202,"placeName":"Djibouti","numOfInfected":1,"travelHistoryChina":null,"outsideReporting":null,"transmissionOutsideOfChina":null,"underInvestigation":null,"deaths":0},{"placeId":193,"placeName":"Somalia","numOfInfected":1,"travelHistoryChina":null,"outsideReporting":null,"transmissionOutsideOfChina":null,"underInvestigation":null,"deaths":0},{"placeId":120,"placeName":"occupied Palestinian territory","numOfInfected":52,"travelHistoryChina":null,"outsideReporting":null,"transmissionOutsideOfChina":null,"underInvestigation":null,"deaths":0},{"placeId":20,"placeName":"United States of America","numOfInfected":15219,"travelHistoryChina":null,"outsideReporting":null,"transmissionOutsideOfChina":null,"underInvestigation":null,"deaths":201},{"placeId":28,"placeName":"Canada","numOfInfected":1048,"travelHistoryChina":null,"outsideReporting":null,"transmissionOutsideOfChina":null,"underInvestigation":null,"deaths":13},{"placeId":75,"placeName":"Brazil","numOfInfected":904,"travelHistoryChina":null,"outsideReporting":null,"transmissionOutsideOfChina":null,"underInvestigation":null,"deaths":11},{"placeId":95,"placeName":"Ecuador","numOfInfected":506,"travelHistoryChina":null,"outsideReporting":null,"transmissionOutsideOfChina":null,"underInvestigation":null,"deaths":7},{"placeId":114,"placeName":"Chile","numOfInfected":434,"travelHistoryChina":null,"outsideReporting":null,"transmissionOutsideOfChina":null,"underInvestigation":null,"deaths":1},{"placeId":131,"placeName":"Peru","numOfInfected":318,"travelHistoryChina":null,"outsideReporting":null,"transmissionOutsideOfChina":null,"underInvestigation":null,"deaths":2},{"placeId":130,"placeName":"Colombia","numOfInfected":196,"travelHistoryChina":null,"outsideReporting":null,"transmissionOutsideOfChina":null,"underInvestigation":null,"deaths":0},{"placeId":102,"placeName":"Mexico","numOfInfected":164,"travelHistoryChina":null,"outsideReporting":null,"transmissionOutsideOfChina":null,"underInvestigation":null,"deaths":1},{"placeId":113,"placeName":"Argentina","numOfInfected":158,"travelHistoryChina":null,"outsideReporting":null,"transmissionOutsideOfChina":null,"underInvestigation":null,"deaths":3},{"placeId":148,"placeName":"Panama","numOfInfected":137,"travelHistoryChina":null,"outsideReporting":null,"transmissionOutsideOfChina":null,"underInvestigation":null,"deaths":1},{"placeId":138,"placeName":"Costa Rica","numOfInfected":113,"travelHistoryChina":null,"outsideReporting":null,"transmissionOutsideOfChina":null,"underInvestigation":null,"deaths":2},{"placeId":184,"placeName":"Uruguay","numOfInfected":94,"travelHistoryChina":null,"outsideReporting":null,"transmissionOutsideOfChina":null,"underInvestigation":null,"deaths":0},{"placeId":101,"placeName":"Dominican Republic","numOfInfected":72,"travelHistoryChina":null,"outsideReporting":null,"transmissionOutsideOfChina":null,"underInvestigation":null,"deaths":2},{"placeId":164,"placeName":"Venezuela Republic of)","numOfInfected":36,"travelHistoryChina":null,"outsideReporting":null,"transmissionOutsideOfChina":null,"underInvestigation":null,"deaths":0},{"placeId":155,"placeName":"Honduras","numOfInfected":24,"travelHistoryChina":null,"outsideReporting":null,"transmissionOutsideOfChina":null,"underInvestigation":null,"deaths":0},{"placeId":149,"placeName":"Bolivia State of)","numOfInfected":19,"travelHistoryChina":null,"outsideReporting":null,"transmissionOutsideOfChina":null,"underInvestigation":null,"deaths":0},{"placeId":143,"placeName":"Paraguay","numOfInfected":18,"travelHistoryChina":null,"outsideReporting":null,"transmissionOutsideOfChina":null,"underInvestigation":null,"deaths":1},{"placeId":159,"placeName":"Cuba","numOfInfected":16,"travelHistoryChina":null,"outsideReporting":null,"transmissionOutsideOfChina":null,"underInvestigation":null,"deaths":1},{"placeId":150,"placeName":"Jamaica","numOfInfected":16,"travelHistoryChina":null,"outsideReporting":null,"transmissionOutsideOfChina":null,"underInvestigation":null,"deaths":1},{"placeId":185,"placeName":"Guatemala","numOfInfected":12,"travelHistoryChina":null,"outsideReporting":null,"transmissionOutsideOfChina":null,"underInvestigation":null,"deaths":1},{"placeId":167,"placeName":"Trinidad and Tobago","numOfInfected":9,"travelHistoryChina":null,"outsideReporting":null,"transmissionOutsideOfChina":null,"underInvestigation":null,"deaths":0},{"placeId":203,"placeName":"Barbados","numOfInfected":5,"travelHistoryChina":null,"outsideReporting":null,"transmissionOutsideOfChina":null,"underInvestigation":null,"deaths":0},{"placeId":160,"placeName":"Guyana","numOfInfected":5,"travelHistoryChina":null,"outsideReporting":null,"transmissionOutsideOfChina":null,"underInvestigation":null,"deaths":1},{"placeId":194,"placeName":"Bahamas","numOfInfected":4,"travelHistoryChina":null,"outsideReporting":null,"transmissionOutsideOfChina":null,"underInvestigation":null,"deaths":0},{"placeId":215,"placeName":"Haiti","numOfInfected":2,"travelHistoryChina":null,"outsideReporting":null,"transmissionOutsideOfChina":null,"underInvestigation":null,"deaths":0},{"placeId":216,"placeName":"Nicaragua","numOfInfected":2,"travelHistoryChina":null,"outsideReporting":null,"transmissionOutsideOfChina":null,"underInvestigation":null,"deaths":0},{"placeId":186,"placeName":"Saint Lucia","numOfInfected":2,"travelHistoryChina":null,"outsideReporting":null,"transmissionOutsideOfChina":null,"underInvestigation":null,"deaths":0},{"placeId":187,"placeName":"Suriname","numOfInfected":2,"travelHistoryChina":null,"outsideReporting":null,"transmissionOutsideOfChina":null,"underInvestigation":null,"deaths":0},{"placeId":165,"placeName":"Antigua and Barbuda","numOfInfected":1,"travelHistoryChina":null,"outsideReporting":null,"transmissionOutsideOfChina":null,"underInvestigation":null,"deaths":0},{"placeId":217,"placeName":"El Salvador","numOfInfected":1,"travelHistoryChina":null,"outsideReporting":null,"transmissionOutsideOfChina":null,"underInvestigation":null,"deaths":0},{"placeId":161,"placeName":"Saint Vincent and the Grenadines","numOfInfected":1,"travelHistoryChina":null,"outsideReporting":null,"transmissionOutsideOfChina":null,"underInvestigation":null,"deaths":0},{"placeId":166,"placeName":"Guadeloupe","numOfInfected":51,"travelHistoryChina":null,"outsideReporting":null,"transmissionOutsideOfChina":null,"underInvestigation":null,"deaths":0},{"placeId":140,"placeName":"Martinique","numOfInfected":32,"travelHistoryChina":null,"outsideReporting":null,"transmissionOutsideOfChina":null,"underInvestigation":null,"deaths":0},{"placeId":163,"placeName":"Puerto Rico","numOfInfected":21,"travelHistoryChina":null,"outsideReporting":null,"transmissionOutsideOfChina":null,"underInvestigation":null,"deaths":1},{"placeId":139,"placeName":"French Guiana","numOfInfected":15,"travelHistoryChina":null,"outsideReporting":null,"transmissionOutsideOfChina":null,"underInvestigation":null,"deaths":0},{"placeId":196,"placeName":"United States Virgin Islands","numOfInfected":6,"travelHistoryChina":null,"outsideReporting":null,"transmissionOutsideOfChina":null,"underInvestigation":null,"deaths":0},{"placeId":195,"placeName":"Aruba","numOfInfected":5,"travelHistoryChina":null,"outsideReporting":null,"transmissionOutsideOfChina":null,"underInvestigation":null,"deaths":0},{"placeId":121,"placeName":"Saint Martin","numOfInfected":4,"travelHistoryChina":null,"outsideReporting":null,"transmissionOutsideOfChina":null,"underInvestigation":null,"deaths":0},{"placeId":168,"placeName":"Cayman Islands","numOfInfected":3,"travelHistoryChina":null,"outsideReporting":null,"transmissionOutsideOfChina":null,"underInvestigation":null,"deaths":1},{"placeId":175,"placeName":"Curaçao","numOfInfected":3,"travelHistoryChina":null,"outsideReporting":null,"transmissionOutsideOfChina":null,"underInvestigation":null,"deaths":1},{"placeId":122,"placeName":"Saint Barthélemy","numOfInfected":3,"travelHistoryChina":null,"outsideReporting":null,"transmissionOutsideOfChina":null,"underInvestigation":null,"deaths":0},{"placeId":218,"placeName":"Bermuda","numOfInfected":2,"travelHistoryChina":null,"outsideReporting":null,"transmissionOutsideOfChina":null,"underInvestigation":null,"deaths":0},{"placeId":204,"placeName":"Montserrat","numOfInfected":1,"travelHistoryChina":null,"outsideReporting":null,"transmissionOutsideOfChina":null,"underInvestigation":null,"deaths":0},{"placeId":219,"placeName":"Sint Maarten","numOfInfected":1,"travelHistoryChina":null,"outsideReporting":null,"transmissionOutsideOfChina":null,"underInvestigation":null,"deaths":0},{"placeId":126,"placeName":"South Africa","numOfInfected":240,"travelHistoryChina":null,"outsideReporting":null,"transmissionOutsideOfChina":null,"underInvestigation":null,"deaths":0},{"placeId":74,"placeName":"Algeria","numOfInfected":94,"travelHistoryChina":null,"outsideReporting":null,"transmissionOutsideOfChina":null,"underInvestigation":null,"deaths":15},{"placeId":151,"placeName":"Burkina Faso","numOfInfected":72,"travelHistoryChina":null,"outsideReporting":null,"transmissionOutsideOfChina":null,"underInvestigation":null,"deaths":3},{"placeId":110,"placeName":"Senegal","numOfInfected":56,"travelHistoryChina":null,"outsideReporting":null,"transmissionOutsideOfChina":null,"underInvestigation":null,"deaths":0},{"placeId":125,"placeName":"Cameroon","numOfInfected":27,"travelHistoryChina":null,"outsideReporting":null,"transmissionOutsideOfChina":null,"underInvestigation":null,"deaths":0},{"placeId":152,"placeName":"Democratic Republic of the Congo","numOfInfected":23,"travelHistoryChina":null,"outsideReporting":null,"transmissionOutsideOfChina":null,"underInvestigation":null,"deaths":1},{"placeId":88,"placeName":"Nigeria","numOfInfected":22,"travelHistoryChina":null,"outsideReporting":null,"transmissionOutsideOfChina":null,"underInvestigation":null,"deaths":0},{"placeId":171,"placeName":"Ghana","numOfInfected":19,"travelHistoryChina":null,"outsideReporting":null,"transmissionOutsideOfChina":null,"underInvestigation":null,"deaths":0},{"placeId":188,"placeName":"Rwanda","numOfInfected":17,"travelHistoryChina":null,"outsideReporting":null,"transmissionOutsideOfChina":null,"underInvestigation":null,"deaths":0},{"placeId":132,"placeName":"Togo","numOfInfected":15,"travelHistoryChina":null,"outsideReporting":null,"transmissionOutsideOfChina":null,"underInvestigation":null,"deaths":0},{"placeId":206,"placeName":"Mauritius","numOfInfected":12,"travelHistoryChina":null,"outsideReporting":null,"transmissionOutsideOfChina":null,"underInvestigation":null,"deaths":0},{"placeId":156,"placeName":"Côte d’Ivoire","numOfInfected":9,"travelHistoryChina":null,"outsideReporting":null,"transmissionOutsideOfChina":null,"underInvestigation":null,"deaths":0},{"placeId":169,"placeName":"Ethiopia","numOfInfected":9,"travelHistoryChina":null,"outsideReporting":null,"transmissionOutsideOfChina":null,"underInvestigation":null,"deaths":0},{"placeId":173,"placeName":"Kenya","numOfInfected":7,"travelHistoryChina":null,"outsideReporting":null,"transmissionOutsideOfChina":null,"underInvestigation":null,"deaths":0},{"placeId":189,"placeName":"Seychelles","numOfInfected":7,"travelHistoryChina":null,"outsideReporting":null,"transmissionOutsideOfChina":null,"underInvestigation":null,"deaths":0},{"placeId":179,"placeName":"Equatorial Guinea","numOfInfected":6,"travelHistoryChina":null,"outsideReporting":null,"transmissionOutsideOfChina":null,"underInvestigation":null,"deaths":0},{"placeId":199,"placeName":"United Republic of Tanzania","numOfInfected":6,"travelHistoryChina":null,"outsideReporting":null,"transmissionOutsideOfChina":null,"underInvestigation":null,"deaths":0},{"placeId":178,"placeName":"Congo","numOfInfected":4,"travelHistoryChina":null,"outsideReporting":null,"transmissionOutsideOfChina":null,"underInvestigation":null,"deaths":0},{"placeId":221,"placeName":"Cabo Verde","numOfInfected":3,"travelHistoryChina":null,"outsideReporting":null,"transmissionOutsideOfChina":null,"underInvestigation":null,"deaths":0},{"placeId":177,"placeName":"Central African Republic","numOfInfected":3,"travelHistoryChina":null,"outsideReporting":null,"transmissionOutsideOfChina":null,"underInvestigation":null,"deaths":0},{"placeId":170,"placeName":"Gabon","numOfInfected":3,"travelHistoryChina":null,"outsideReporting":null,"transmissionOutsideOfChina":null,"underInvestigation":null,"deaths":1},{"placeId":198,"placeName":"Liberia","numOfInfected":3,"travelHistoryChina":null,"outsideReporting":null,"transmissionOutsideOfChina":null,"underInvestigation":null,"deaths":0},{"placeId":225,"placeName":"Madagascar","numOfInfected":3,"travelHistoryChina":null,"outsideReporting":null,"transmissionOutsideOfChina":null,"underInvestigation":null,"deaths":0},{"placeId":176,"placeName":"Namibia","numOfInfected":3,"travelHistoryChina":null,"outsideReporting":null,"transmissionOutsideOfChina":null,"underInvestigation":null,"deaths":0},{"placeId":226,"placeName":"Angola","numOfInfected":2,"travelHistoryChina":null,"outsideReporting":null,"transmissionOutsideOfChina":null,"underInvestigation":null,"deaths":0},{"placeId":197,"placeName":"Benin","numOfInfected":2,"travelHistoryChina":null,"outsideReporting":null,"transmissionOutsideOfChina":null,"underInvestigation":null,"deaths":0},{"placeId":172,"placeName":"Guinea","numOfInfected":2,"travelHistoryChina":null,"outsideReporting":null,"transmissionOutsideOfChina":null,"underInvestigation":null,"deaths":0},{"placeId":181,"placeName":"Mauritania","numOfInfected":2,"travelHistoryChina":null,"outsideReporting":null,"transmissionOutsideOfChina":null,"underInvestigation":null,"deaths":0},{"placeId":207,"placeName":"Zambia","numOfInfected":2,"travelHistoryChina":null,"outsideReporting":null,"transmissionOutsideOfChina":null,"underInvestigation":null,"deaths":0},{"placeId":223,"placeName":"Zimbabwe","numOfInfected":2,"travelHistoryChina":null,"outsideReporting":null,"transmissionOutsideOfChina":null,"underInvestigation":null,"deaths":0},{"placeId":222,"placeName":"Chad","numOfInfected":1,"travelHistoryChina":null,"outsideReporting":null,"transmissionOutsideOfChina":null,"underInvestigation":null,"deaths":0},{"placeId":227,"placeName":"Eritrea","numOfInfected":1,"travelHistoryChina":null,"outsideReporting":null,"transmissionOutsideOfChina":null,"underInvestigation":null,"deaths":0},{"placeId":180,"placeName":"Eswatini","numOfInfected":1,"travelHistoryChina":null,"outsideReporting":null,"transmissionOutsideOfChina":null,"underInvestigation":null,"deaths":0},{"placeId":208,"placeName":"Gambia","numOfInfected":1,"travelHistoryChina":null,"outsideReporting":null,"transmissionOutsideOfChina":null,"underInvestigation":null,"deaths":0},{"placeId":224,"placeName":"Niger","numOfInfected":1,"travelHistoryChina":null,"outsideReporting":null,"transmissionOutsideOfChina":null,"underInvestigation":null,"deaths":0},{"placeId":228,"placeName":"Uganda","numOfInfected":1,"travelHistoryChina":null,"outsideReporting":null,"transmissionOutsideOfChina":null,"underInvestigation":null,"deaths":0},{"placeId":158,"placeName":"Réunion","numOfInfected":47,"travelHistoryChina":null,"outsideReporting":null,"transmissionOutsideOfChina":null,"underInvestigation":null,"deaths":0},{"placeId":182,"placeName":"Mayotte","numOfInfected":11,"travelHistoryChina":null,"outsideReporting":null,"transmissionOutsideOfChina":null,"underInvestigation":null,"deaths":0},{"placeId":43,"placeName":"Diamond Princess","numOfInfected":712,"travelHistoryChina":null,"outsideReporting":null,"transmissionOutsideOfChina":null,"underInvestigation":null,"deaths":7}]}